{
    "Aba": {
        "name": "阿坝",
        "admaster": "阿坝藏族羌族自治州",
        "name_en": "Aba",
        "province": "四川",
        "province_en": "Sichuan",
        "tier": "5"
    },
    "Akesu": {
        "name": "阿克苏",
        "admaster": "阿克苏地区",
        "name_en": "Akesu",
        "province": "新疆",
        "province_en": "Xinjiang",
        "tier": "5"
    },
    "Alashanmeng": {
        "name": "阿拉善盟",
        "admaster": "阿拉善盟",
        "name_en": "Alashanmeng",
        "province": "内蒙古",
        "province_en": "Neimenggu",
        "tier": "5"
    },
    "Aletai": {
        "name": "阿勒泰",
        "admaster": "阿勒泰地区",
        "name_en": "Aletai",
        "province": "新疆",
        "province_en": "Xinjiang",
        "tier": "5"
    },
    "Ali": {
        "name": "阿里",
        "admaster": "阿里地区",
        "name_en": "Ali",
        "province": "西藏",
        "province_en": "Xizang",
        "tier": "5"
    },
    "Ankang": {
        "name": "安康",
        "admaster": "安康市",
        "name_en": "Ankang",
        "province": "陕西",
        "province_en": "Shanxi",
        "tier": "5"
    },
    "Anqing": {
        "name": "安庆",
        "admaster": "安庆市",
        "name_en": "Anqing",
        "province": "安徽",
        "province_en": "Anhui",
        "tier": "5"
    },
    "Anshan": {
        "name": "鞍山",
        "admaster": "鞍山市",
        "name_en": "Anshan",
        "province": "辽宁",
        "province_en": "Liaoning",
        "tier": "3"
    },
    "Anshun": {
        "name": "安顺",
        "admaster": "安顺市",
        "name_en": "Anshun",
        "province": "贵州",
        "province_en": "Guizhou",
        "tier": "5"
    },
    "Anyang": {
        "name": "安阳",
        "admaster": "安阳市",
        "name_en": "Anyang",
        "province": "河南",
        "province_en": "Henan",
        "tier": "5"
    },
    "Baicheng": {
        "name": "白城",
        "admaster": "白城市",
        "name_en": "Baicheng",
        "province": "吉林",
        "province_en": "Jilin",
        "tier": "5"
    },
    "Baise": {
        "name": "百色",
        "admaster": "百色市",
        "name_en": "Baise",
        "province": "广西",
        "province_en": "Guangxi",
        "tier": "5"
    },
    "Baishan": {
        "name": "白山",
        "admaster": "白山市",
        "name_en": "Baishan",
        "province": "吉林",
        "province_en": "Jilin",
        "tier": "5"
    },
    "Baiyin": {
        "name": "白银",
        "admaster": "白银市",
        "name_en": "Baiyin",
        "province": "甘肃",
        "province_en": "Gansu",
        "tier": "5"
    },
    "Baoding": {
        "name": "保定",
        "admaster": "保定市",
        "name_en": "Baoding",
        "province": "河北",
        "province_en": "Hebei",
        "tier": "3"
    },
    "Baoji": {
        "name": "宝鸡",
        "admaster": "宝鸡市",
        "name_en": "Baoji",
        "province": "陕西",
        "province_en": "Shanxi",
        "tier": "5"
    },
    "Baoshan": {
        "name": "保山",
        "admaster": "保山市",
        "name_en": "Baoshan",
        "province": "云南",
        "province_en": "Yunnan",
        "tier": "5"
    },
    "Baotou": {
        "name": "包头",
        "admaster": "包头市",
        "name_en": "Baotou",
        "province": "内蒙古",
        "province_en": "Neimenggu",
        "tier": "3"
    },
    "Bayannur": {
        "name": "巴彦淖尔",
        "admaster": "巴彦淖尔市",
        "name_en": "Bayannur",
        "province": "内蒙古",
        "province_en": "Neimenggu",
        "tier": "5"
    },
    "Bayinguoleng": {
        "name": "巴音郭楞",
        "admaster": "巴音郭楞蒙古自治州",
        "name_en": "Bayinguoleng",
        "province": "新疆",
        "province_en": "Xinjiang",
        "tier": "5"
    },
    "Bazhong": {
        "name": "巴中",
        "admaster": "巴中市",
        "name_en": "Bazhong",
        "province": "四川",
        "province_en": "Sichuan",
        "tier": "5"
    },
    "Beihai": {
        "name": "北海",
        "admaster": "北海市",
        "name_en": "Beihai",
        "province": "广西",
        "province_en": "Guangxi",
        "tier": "5"
    },
    "Beijing": {
        "name": "北京",
        "admaster": "北京市",
        "name_en": "Beijing",
        "province": "北京",
        "province_en": "Beijing",
        "tier": "5"
    },
    "Bengbu": {
        "name": "蚌埠",
        "admaster": "蚌埠市",
        "name_en": "Bengbu",
        "province": "安徽",
        "province_en": "Anhui",
        "tier": "3"
    },
    "Benxi": {
        "name": "本溪",
        "admaster": "本溪市",
        "name_en": "Benxi",
        "province": "辽宁",
        "province_en": "Liaoning",
        "tier": "5"
    },
    "Bijie": {
        "name": "毕节",
        "admaster": "毕节市",
        "name_en": "Bijie",
        "province": "贵州",
        "province_en": "Guizhou",
        "tier": "5"
    },
    "Binzhou": {
        "name": "滨州",
        "admaster": "滨州市",
        "name_en": "Binzhou",
        "province": "山东",
        "province_en": "Shandong",
        "tier": "5"
    },
    "Boertala": {
        "name": "博尔塔拉",
        "admaster": "博尔塔拉蒙古自治州",
        "name_en": "Boertala",
        "province": "新疆",
        "province_en": "Xinjiang",
        "tier": "5"
    },
    "Bozhou": {
        "name": "亳州",
        "admaster": "亳州市",
        "name_en": "Bozhou",
        "province": "安徽",
        "province_en": "Anhui",
        "tier": "5"
    },
    "Cangzhou": {
        "name": "沧州",
        "admaster": "沧州市",
        "name_en": "Cangzhou",
        "province": "河北",
        "province_en": "Hebei",
        "tier": "3"
    },
    "Chamdo": {
        "name": "昌都",
        "admaster": "昌都市",
        "name_en": "Chamdo",
        "province": "西藏",
        "province_en": "Xizang",
        "tier": "5"
    },
    "Changchun": {
        "name": "长春",
        "admaster": "长春市",
        "name_en": "Changchun",
        "province": "吉林",
        "province_en": "Jilin",
        "tier": "2"
    },
    "Changde": {
        "name": "常德",
        "admaster": "常德市",
        "name_en": "Changde",
        "province": "湖南",
        "province_en": "Hunan",
        "tier": "5"
    },
    "Changdou": {
        "name": "昌都",
        "admaster": "昌都地区",
        "name_en": "Changdou",
        "province": "西藏",
        "province_en": "Xizang",
        "tier": "5"
    },
    "Changji": {
        "name": "昌吉",
        "admaster": "昌吉回族自治州",
        "name_en": "Changji",
        "province": "新疆",
        "province_en": "Xinjiang",
        "tier": "5"
    },
    "Changsha": {
        "name": "长沙",
        "admaster": "长沙市",
        "name_en": "Changsha",
        "province": "湖南",
        "province_en": "Hunan",
        "tier": "new 1"
    },
    "Changzhi": {
        "name": "长治",
        "admaster": "长治市",
        "name_en": "Changzhi",
        "province": "山西",
        "province_en": "Shanxi",
        "tier": "5"
    },
    "Changzhou": {
        "name": "常州",
        "admaster": "常州市",
        "name_en": "Changzhou",
        "province": "江苏",
        "province_en": "Jiangsu",
        "tier": "2"
    },
    "Chaohu": {
        "name": "巢湖",
        "admaster": "巢湖市",
        "name_en": "Chaohu",
        "province": "安徽",
        "province_en": "anhui",
        "tier": "5"
    },
    "Chaoyang": {
        "name": "朝阳",
        "admaster": "朝阳市",
        "name_en": "Chaoyang",
        "province": "辽宁",
        "province_en": "Liaoning",
        "tier": "5"
    },
    "Chaozhou": {
        "name": "潮州",
        "admaster": "潮州市",
        "name_en": "Chaozhou",
        "province": "广东",
        "province_en": "Guangdong",
        "tier": "5"
    },
    "Chengde": {
        "name": "承德",
        "admaster": "承德市",
        "name_en": "Chengde",
        "province": "河北",
        "province_en": "Hebei",
        "tier": "5"
    },
    "Chengdu": {
        "name": "成都",
        "admaster": "成都市",
        "name_en": "Chengdu",
        "province": "四川",
        "province_en": "Sichuan",
        "tier": "5"
    },
    "Chenzhou": {
        "name": "郴州",
        "admaster": "郴州市",
        "name_en": "Chenzhou",
        "province": "湖南",
        "province_en": "Hunan",
        "tier": "5"
    },
    "Chifeng": {
        "name": "赤峰",
        "admaster": "赤峰市",
        "name_en": "Chifeng",
        "province": "内蒙古",
        "province_en": "Neimenggu",
        "tier": "5"
    },
    "Chizhou": {
        "name": "池州",
        "admaster": "池州市",
        "name_en": "Chizhou",
        "province": "安徽",
        "province_en": "Anhui",
        "tier": "5"
    },
    "Chongqing": {
        "name": "重庆",
        "admaster": "重庆市",
        "name_en": "Chongqing",
        "province": "重庆",
        "province_en": "Chongqing",
        "tier": "new 1"
    },
    "Chongzuo": {
        "name": "崇左",
        "admaster": "崇左市",
        "name_en": "Chongzuo",
        "province": "广西",
        "province_en": "Guangxi",
        "tier": "5"
    },
    "Chuxiong": {
        "name": "楚雄",
        "admaster": "楚雄彝族自治州",
        "name_en": "Chuxiong",
        "province": "云南",
        "province_en": "Yunnan",
        "tier": "5"
    },
    "Chuzhou": {
        "name": "滁州",
        "admaster": "滁州市",
        "name_en": "Chuzhou",
        "province": "安徽",
        "province_en": "Anhui",
        "tier": "5"
    },
    "Dali": {
        "name": "大理",
        "admaster": "大理白族自治州",
        "name_en": "Dali",
        "province": "云南",
        "province_en": "Yunnan",
        "tier": "5"
    },
    "Dalian": {
        "name": "大连",
        "admaster": "大连市",
        "name_en": "Dalian",
        "province": "辽宁",
        "province_en": "Liaoning",
        "tier": "new 1"
    },
    "Dandong": {
        "name": "丹东",
        "admaster": "丹东市",
        "name_en": "Dandong",
        "province": "辽宁",
        "province_en": "Liaoning",
        "tier": "3"
    },
    "Danzhou": {
        "name": "儋州",
        "admaster": "儋州市",
        "name_en": "Danzhou",
        "province": "海南",
        "province_en": "Hainan",
        "tier": "5"
    },
    "Daqing": {
        "name": "大庆",
        "admaster": "大庆市",
        "name_en": "Daqing",
        "province": "黑龙江",
        "province_en": "Heilongjiang",
        "tier": "3"
    },
    "Datong": {
        "name": "大同",
        "admaster": "大同市",
        "name_en": "Datong",
        "province": "山西",
        "province_en": "Shanxi",
        "tier": "5"
    },
    "Daxinganling": {
        "name": "大兴安岭",
        "admaster": "大兴安岭地区",
        "name_en": "Daxinganling",
        "province": "黑龙江",
        "province_en": "Heilongjiang",
        "tier": "5"
    },
    "Dazhou": {
        "name": "达州",
        "admaster": "达州市",
        "name_en": "Dazhou",
        "province": "四川",
        "province_en": "Sichuan",
        "tier": "5"
    },
    "Dehong": {
        "name": "德宏",
        "admaster": "德宏傣族景颇族自治州",
        "name_en": "Dehong",
        "province": "云南",
        "province_en": "Yunnan",
        "tier": "5"
    },
    "Deyang": {
        "name": "德阳",
        "admaster": "德阳市",
        "name_en": "Deyang",
        "province": "四川",
        "province_en": "Sichuan",
        "tier": "5"
    },
    "Dezhou": {
        "name": "德州",
        "admaster": "德州市",
        "name_en": "Dezhou",
        "province": "山东",
        "province_en": "Shandong",
        "tier": "5"
    },
    "Dingxi": {
        "name": "定西",
        "admaster": "定西市",
        "name_en": "Dingxi",
        "province": "甘肃",
        "province_en": "Gansu",
        "tier": "5"
    },
    "Diqing": {
        "name": "迪庆",
        "admaster": "迪庆藏族自治州",
        "name_en": "Diqing",
        "province": "云南",
        "province_en": "Yunnan",
        "tier": "5"
    },
    "Dongguan": {
        "name": "东莞",
        "admaster": "东莞市",
        "name_en": "Dongguan",
        "province": "广东",
        "province_en": "Guangdong",
        "tier": "new 1"
    },
    "Dongying": {
        "name": "东营",
        "admaster": "东营市",
        "name_en": "Dongying",
        "province": "山东",
        "province_en": "Shandong",
        "tier": "3"
    },
    "Enshi": {
        "name": "恩施",
        "admaster": "恩施土家族苗族自治州",
        "name_en": "Enshi",
        "province": "湖北",
        "province_en": "Hubei",
        "tier": "5"
    },
    "Ezhou": {
        "name": "鄂州",
        "admaster": "鄂州市",
        "name_en": "Ezhou",
        "province": "湖北",
        "province_en": "Hubei",
        "tier": "5"
    },
    "Fangchenggang": {
        "name": "防城港",
        "admaster": "防城港市",
        "name_en": "Fangchenggang",
        "province": "广西",
        "province_en": "Guangxi",
        "tier": "5"
    },
    "Foshan": {
        "name": "佛山",
        "admaster": "佛山市",
        "name_en": "Foshan",
        "province": "广东",
        "province_en": "Guangdong",
        "tier": "2"
    },
    "Fushun": {
        "name": "抚顺",
        "admaster": "抚顺市",
        "name_en": "Fushun",
        "province": "辽宁",
        "province_en": "Liaoning",
        "tier": "3"
    },
    "Fuxin": {
        "name": "阜新",
        "admaster": "阜新市",
        "name_en": "Fuxin",
        "province": "辽宁",
        "province_en": "Liaoning",
        "tier": "5"
    },
    "Fuyang": {
        "name": "阜阳",
        "admaster": "阜阳市",
        "name_en": "Fuyang",
        "province": "安徽",
        "province_en": "Anhui",
        "tier": "5"
    },
    "Fuzhou": {
        "name": "福州",
        "admaster": "福州市",
        "name_en": "Fuzhou",
        "province": "福建",
        "province_en": "Fujian",
        "tier": "2"
    },
    "Gannan": {
        "name": "甘南",
        "admaster": "甘南藏族自治州",
        "name_en": "Gannan",
        "province": "甘肃",
        "province_en": "Gansu",
        "tier": "5"
    },
    "Ganzhou": {
        "name": "赣州",
        "admaster": "赣州市",
        "name_en": "Ganzhou",
        "province": "江西",
        "province_en": "Jiangxi",
        "tier": "3"
    },
    "Ganzi": {
        "name": "甘孜",
        "admaster": "甘孜藏族自治州",
        "name_en": "Ganzi",
        "province": "四川",
        "province_en": "Sichuan",
        "tier": "5"
    },
    "Guang'an": {
        "name": "广安",
        "admaster": "广安市",
        "name_en": "Guang'an",
        "province": "四川",
        "province_en": "Sichuan",
        "tier": "5"
    },
    "Guangyuan": {
        "name": "广元",
        "admaster": "广元市",
        "name_en": "Guangyuan",
        "province": "四川",
        "province_en": "Sichuan",
        "tier": "5"
    },
    "Guangzhou": {
        "name": "广州",
        "admaster": "广州市",
        "name_en": "Guangzhou",
        "province": "广东",
        "province_en": "Guangdong",
        "tier": "1"
    },
    "Guigang": {
        "name": "贵港",
        "admaster": "贵港市",
        "name_en": "Guigang",
        "province": "广西",
        "province_en": "Guangxi",
        "tier": "5"
    },
    "Guilin": {
        "name": "桂林",
        "admaster": "桂林市",
        "name_en": "Guilin",
        "province": "广西",
        "province_en": "Guangxi",
        "tier": "3"
    },
    "Guiyang": {
        "name": "贵阳",
        "admaster": "贵阳市",
        "name_en": "Guiyang",
        "province": "贵州",
        "province_en": "Guizhou",
        "tier": "2"
    },
    "Guoluo": {
        "name": "果洛",
        "admaster": "果洛藏族自治州",
        "name_en": "Guoluo",
        "province": "青海",
        "province_en": "Qinghai",
        "tier": "5"
    },
    "Guyuan": {
        "name": "固原",
        "admaster": "固原市",
        "name_en": "Guyuan",
        "province": "宁夏",
        "province_en": "Ningxia",
        "tier": "5"
    },
    "Haibei": {
        "name": "海北",
        "admaster": "海北藏族自治州",
        "name_en": "Haibei",
        "province": "青海",
        "province_en": "Qinghai",
        "tier": "5"
    },
    "Haidong": {
        "name": "海东",
        "admaster": "海东市",
        "name_en": "Haidong",
        "province": "青海",
        "province_en": "Qinghai",
        "tier": "5"
    },
    "Haikou": {
        "name": "海口",
        "admaster": "海口市",
        "name_en": "Haikou",
        "province": "海南",
        "province_en": "Hainan",
        "tier": "2"
    },
    "Hainan": {
        "name": "海南",
        "admaster": "海南藏族自治州",
        "name_en": "Hainan",
        "province": "青海",
        "province_en": "Qinghai",
        "tier": "5"
    },
    "Haixi": {
        "name": "海西",
        "admaster": "海西蒙古族藏族自治州",
        "name_en": "Haixi",
        "province": "青海",
        "province_en": "Qinghai",
        "tier": "5"
    },
    "Hami": {
        "name": "哈密",
        "admaster": "哈密地区",
        "name_en": "Hami",
        "province": "新疆",
        "province_en": "Xinjiang",
        "tier": "5"
    },
    "Handan": {
        "name": "邯郸",
        "admaster": "邯郸市",
        "name_en": "Handan",
        "province": "河北",
        "province_en": "Hebei",
        "tier": "3"
    },
    "Hangzhou": {
        "name": "杭州",
        "admaster": "杭州市",
        "name_en": "Hangzhou",
        "province": "浙江",
        "province_en": "Zhejiang",
        "tier": "new 1"
    },
    "Hanzhong": {
        "name": "汉中",
        "admaster": "汉中市",
        "name_en": "Hanzhong",
        "province": "陕西",
        "province_en": "Shanxi",
        "tier": "5"
    },
    "Harbin": {
        "name": "哈尔滨",
        "admaster": "哈尔滨市",
        "name_en": "Harbin",
        "province": "黑龙江",
        "province_en": "Heilongjiang",
        "tier": "2"
    },
    "Hebi": {
        "name": "鹤壁",
        "admaster": "鹤壁市",
        "name_en": "Hebi",
        "province": "河南",
        "province_en": "Henan",
        "tier": "5"
    },
    "Hechi": {
        "name": "河池",
        "admaster": "河池市",
        "name_en": "Hechi",
        "province": "广西",
        "province_en": "Guangxi",
        "tier": "5"
    },
    "Hefei": {
        "name": "合肥",
        "admaster": "合肥市",
        "name_en": "Hefei",
        "province": "安徽",
        "province_en": "Anhui",
        "tier": "2"
    },
    "Hegang": {
        "name": "鹤岗",
        "admaster": "鹤岗市",
        "name_en": "Hegang",
        "province": "黑龙江",
        "province_en": "Heilongjiang",
        "tier": "5"
    },
    "Heihe": {
        "name": "黑河",
        "admaster": "黑河市",
        "name_en": "Heihe",
        "province": "黑龙江",
        "province_en": "Heilongjiang",
        "tier": "5"
    },
    "Hengshui": {
        "name": "衡水",
        "admaster": "衡水市",
        "name_en": "Hengshui",
        "province": "河北",
        "province_en": "Hebei",
        "tier": "5"
    },
    "Hengyang": {
        "name": "衡阳",
        "admaster": "衡阳市",
        "name_en": "Hengyang",
        "province": "湖南",
        "province_en": "Hunan",
        "tier": "3"
    },
    "Hetian": {
        "name": "和田",
        "admaster": "和田地区",
        "name_en": "Hetian",
        "province": "新疆",
        "province_en": "Xinjiang",
        "tier": "5"
    },
    "Heyuan": {
        "name": "河源",
        "admaster": "河源市",
        "name_en": "Heyuan",
        "province": "广东",
        "province_en": "Guangdong",
        "tier": "5"
    },
    "Heze": {
        "name": "菏泽",
        "admaster": "菏泽市",
        "name_en": "Heze",
        "province": "山东",
        "province_en": "Shandong",
        "tier": "5"
    },
    "Hezhou": {
        "name": "贺州",
        "admaster": "贺州市",
        "name_en": "Hezhou",
        "province": "广西",
        "province_en": "Guangxi",
        "tier": "5"
    },
    "Hohhot": {
        "name": "呼和浩特",
        "admaster": "呼和浩特市",
        "name_en": "Hohhot",
        "province": "内蒙古",
        "province_en": "Neimenggu",
        "tier": "3"
    },
    "Honghe": {
        "name": "红河",
        "admaster": "红河哈尼族彝族自治州",
        "name_en": "Honghe",
        "province": "云南",
        "province_en": "Yunnan",
        "tier": "5"
    },
    "Huaibei": {
        "name": "淮北",
        "admaster": "淮北市",
        "name_en": "Huaibei",
        "province": "安徽",
        "province_en": "Anhui",
        "tier": "5"
    },
    "Huaihua": {
        "name": "怀化",
        "admaster": "怀化市",
        "name_en": "Huaihua",
        "province": "湖南",
        "province_en": "Hunan",
        "tier": "5"
    },
    "Huainan": {
        "name": "淮安",
        "admaster": "淮南市",
        "name_en": "Huainan",
        "province": "江苏",
        "province_en": "Jiangsu",
        "tier": "5"
    },
    "Huanggang": {
        "name": "黄冈",
        "admaster": "黄冈市",
        "name_en": "Huanggang",
        "province": "湖北",
        "province_en": "Hubei",
        "tier": "5"
    },
    "Huangnan": {
        "name": "黄南",
        "admaster": "黄南藏族自治州",
        "name_en": "Huangnan",
        "province": "青海",
        "province_en": "Qinghai",
        "tier": "5"
    },
    "Huangshan": {
        "name": "黄山",
        "admaster": "黄山市",
        "name_en": "Huangshan",
        "province": "安徽",
        "province_en": "Anhui",
        "tier": "5"
    },
    "Huangshi": {
        "name": "黄石",
        "admaster": "黄石市",
        "name_en": "Huangshi",
        "province": "湖北",
        "province_en": "Hubei",
        "tier": "5"
    },
    "Huizhou": {
        "name": "惠州",
        "admaster": "惠州市",
        "name_en": "Huizhou",
        "province": "广东",
        "province_en": "Guangdong",
        "tier": "2"
    },
    "Huludao": {
        "name": "葫芦岛",
        "admaster": "葫芦岛市",
        "name_en": "Huludao",
        "province": "辽宁",
        "province_en": "Liaoning",
        "tier": "5"
    },
    "Hulunbuir": {
        "name": "呼伦贝尔",
        "admaster": "呼伦贝尔市",
        "name_en": "Hulunbuir",
        "province": "内蒙古",
        "province_en": "Neimenggu",
        "tier": "5"
    },
    "Huzhou": {
        "name": "湖州",
        "admaster": "湖州市",
        "name_en": "Huzhou",
        "province": "浙江",
        "province_en": "Zhejiang",
        "tier": "3"
    },
    "Ji'an": {
        "name": "吉安",
        "admaster": "吉安市",
        "name_en": "Ji'an",
        "province": "江西",
        "province_en": "Jiangxi",
        "tier": "5"
    },
    "Jiamusi": {
        "name": "佳木斯",
        "admaster": "佳木斯市",
        "name_en": "Jiamusi",
        "province": "黑龙江",
        "province_en": "Heilongjiang",
        "tier": "5"
    },
    "Jiangmen": {
        "name": "江门",
        "admaster": "江门市",
        "name_en": "Jiangmen",
        "province": "广东",
        "province_en": "Guangdong",
        "tier": "3"
    },
    "Jiaozuo": {
        "name": "焦作",
        "admaster": "焦作市",
        "name_en": "Jiaozuo",
        "province": "河南",
        "province_en": "Henan",
        "tier": "5"
    },
    "Jiaxing": {
        "name": "嘉兴",
        "admaster": "嘉兴市",
        "name_en": "Jiaxing",
        "province": "浙江",
        "province_en": "Zhejiang",
        "tier": "2"
    },
    "Jiayuguan": {
        "name": "嘉峪关",
        "admaster": "嘉峪关市",
        "name_en": "Jiayuguan",
        "province": "甘肃",
        "province_en": "Gansu",
        "tier": "5"
    },
    "Jieyang": {
        "name": "揭阳",
        "admaster": "揭阳市",
        "name_en": "Jieyang",
        "province": "广东",
        "province_en": "Guangdong",
        "tier": "3"
    },
    "Jilin": {
        "name": "吉林",
        "admaster": "吉林市",
        "name_en": "Jilin",
        "province": "吉林",
        "province_en": "Jilin",
        "tier": "3"
    },
    "Jinan": {
        "name": "济南",
        "admaster": "济南市",
        "name_en": "Jinan",
        "province": "山东",
        "province_en": "Shandong",
        "tier": "2"
    },
    "Jinchang": {
        "name": "金昌",
        "admaster": "金昌市",
        "name_en": "Jinchang",
        "province": "甘肃",
        "province_en": "Gansu",
        "tier": "5"
    },
    "Jincheng": {
        "name": "晋城",
        "admaster": "晋城市",
        "name_en": "Jincheng",
        "province": "山西",
        "province_en": "Shanxi",
        "tier": "5"
    },
    "Jingdezhen": {
        "name": "景德镇",
        "admaster": "景德镇市",
        "name_en": "Jingdezhen",
        "province": "江西",
        "province_en": "Jiangxi",
        "tier": "5"
    },
    "Jingmen": {
        "name": "荆门",
        "admaster": "荆门市",
        "name_en": "Jingmen",
        "province": "湖北",
        "province_en": "Hubei",
        "tier": "5"
    },
    "Jingzhou": {
        "name": "荆州",
        "admaster": "荆州市",
        "name_en": "Jingzhou",
        "province": "湖北",
        "province_en": "Hubei",
        "tier": "3"
    },
    "Jinhua": {
        "name": "金华",
        "admaster": "金华市",
        "name_en": "Jinhua",
        "province": "浙江",
        "province_en": "Zhejiang",
        "tier": "2"
    },
    "Jining": {
        "name": "济宁",
        "admaster": "济宁市",
        "name_en": "Jining",
        "province": "山东",
        "province_en": "Shandong",
        "tier": "3"
    },
    "Jinzhong": {
        "name": "晋中",
        "admaster": "晋中市",
        "name_en": "Jinzhong",
        "province": "山西",
        "province_en": "Shanxi",
        "tier": "5"
    },
    "Jinzhou": {
        "name": "锦州",
        "admaster": "锦州市",
        "name_en": "Jinzhou",
        "province": "辽宁",
        "province_en": "Liaoning",
        "tier": "5"
    },
    "Jiujiang": {
        "name": "九江",
        "admaster": "九江市",
        "name_en": "Jiujiang",
        "province": "江西",
        "province_en": "Jiangxi",
        "tier": "3"
    },
    "Jiuquan": {
        "name": "酒泉",
        "admaster": "酒泉市",
        "name_en": "Jiuquan",
        "province": "甘肃",
        "province_en": "Gansu",
        "tier": "5"
    },
    "Jixi": {
        "name": "鸡西",
        "admaster": "鸡西市",
        "name_en": "Jixi",
        "province": "黑龙江",
        "province_en": "Heilongjiang",
        "tier": "5"
    },
    "Kaifeng": {
        "name": "开封",
        "admaster": "开封市",
        "name_en": "Kaifeng",
        "province": "河南",
        "province_en": "Henan",
        "tier": "5"
    },
    "Karamay": {
        "name": "克拉玛依",
        "admaster": "克拉玛依市",
        "name_en": "Karamay",
        "province": "新疆",
        "province_en": "Xinjiang",
        "tier": "5"
    },
    "Kashen": {
        "name": "喀什",
        "admaster": "喀什地区",
        "name_en": "Kashen",
        "province": "新疆",
        "province_en": "Xinjiang",
        "tier": "5"
    },
    "Kezilesukeerkezi": {
        "name": "克孜勒苏柯尔克孜",
        "admaster": "克孜勒苏柯尔克孜自治州",
        "name_en": "Kezilesukeerkezi",
        "province": "新疆",
        "province_en": "xinjiang",
        "tier": "5"
    },
    "Kunming": {
        "name": "昆明",
        "admaster": "昆明市",
        "name_en": "Kunming",
        "province": "云南",
        "province_en": "Yunnan",
        "tier": "2"
    },
    "Laibin": {
        "name": "来宾",
        "admaster": "来宾市",
        "name_en": "Laibin",
        "province": "广西",
        "province_en": "Guangxi",
        "tier": "5"
    },
    "Laiwu": {
        "name": "莱芜",
        "admaster": "莱芜市",
        "name_en": "Laiwu",
        "province": "山东",
        "province_en": "Shandong",
        "tier": "5"
    },
    "Langfang": {
        "name": "廊坊",
        "admaster": "廊坊市",
        "name_en": "Langfang",
        "province": "河北",
        "province_en": "Hebei",
        "tier": "3"
    },
    "Lanzhou": {
        "name": "兰州",
        "admaster": "兰州市",
        "name_en": "Lanzhou",
        "province": "甘肃",
        "province_en": "Gansu",
        "tier": "2"
    },
    "Leshan": {
        "name": "乐山",
        "admaster": "乐山市",
        "name_en": "Leshan",
        "province": "四川",
        "province_en": "Sichuan",
        "tier": "5"
    },
    "Lhasa": {
        "name": "拉萨",
        "admaster": "拉萨市",
        "name_en": "Lhasa",
        "province": "西藏",
        "province_en": "Xizang",
        "tier": "5"
    },
    "Liangshan": {
        "name": "凉山",
        "admaster": "凉山彝族自治州",
        "name_en": "Liangshan",
        "province": "四川",
        "province_en": "Sichuan",
        "tier": "5"
    },
    "Lianyungang": {
        "name": "连云港",
        "admaster": "连云港市",
        "name_en": "Lianyungang",
        "province": "江苏",
        "province_en": "Jiangsu",
        "tier": "3"
    },
    "Liaocheng": {
        "name": "聊城",
        "admaster": "聊城市",
        "name_en": "Liaocheng",
        "province": "山东",
        "province_en": "Shandong",
        "tier": "5"
    },
    "Liaoyang": {
        "name": "辽阳",
        "admaster": "辽阳市",
        "name_en": "Liaoyang",
        "province": "辽宁",
        "province_en": "Liaoning",
        "tier": "5"
    },
    "Liaoyuan": {
        "name": "辽源",
        "admaster": "辽源市",
        "name_en": "Liaoyuan",
        "province": "吉林",
        "province_en": "Jilin",
        "tier": "5"
    },
    "Lijiang": {
        "name": "丽江",
        "admaster": "丽江市",
        "name_en": "Lijiang",
        "province": "云南",
        "province_en": "Yunnan",
        "tier": "3"
    },
    "Lincang": {
        "name": "临沧",
        "admaster": "临沧市",
        "name_en": "Lincang",
        "province": "云南",
        "province_en": "Yunnan",
        "tier": "5"
    },
    "Linfen": {
        "name": "临汾",
        "admaster": "临汾市",
        "name_en": "Linfen",
        "province": "山西",
        "province_en": "Shanxi",
        "tier": "5"
    },
    "Linguolexi": {
        "name": "锡林郭勒",
        "admaster": "锡林郭勒盟",
        "name_en": "Linguolexi",
        "province": "内蒙古",
        "province_en": "Neimenggu",
        "tier": "5"
    },
    "Linyi": {
        "name": "临沂",
        "admaster": "临沂市",
        "name_en": "Linyi",
        "province": "山东",
        "province_en": "Shandong",
        "tier": "3"
    },
    "Linzhi": {
        "name": "林芝",
        "admaster": "林芝地区",
        "name_en": "Linzhi",
        "province": "西藏",
        "province_en": "Xizang",
        "tier": "5"
    },
    "Lishui": {
        "name": "丽水",
        "admaster": "丽水市",
        "name_en": "Lishui",
        "province": "浙江",
        "province_en": "Zhejiang",
        "tier": "3"
    },
    "Liupanshui": {
        "name": "六盘水",
        "admaster": "六盘水市",
        "name_en": "Liupanshui",
        "province": "贵州",
        "province_en": "Guizhou",
        "tier": "5"
    },
    "Liuzhou": {
        "name": "柳州",
        "admaster": "柳州市",
        "name_en": "Liuzhou",
        "province": "广西",
        "province_en": "Guangxi",
        "tier": "3"
    },
    "Longnan": {
        "name": "陇南",
        "admaster": "陇南市",
        "name_en": "Longnan",
        "province": "甘肃",
        "province_en": "Gansu",
        "tier": "5"
    },
    "Longyan": {
        "name": "龙岩",
        "admaster": "龙岩市",
        "name_en": "Longyan",
        "province": "福建",
        "province_en": "Fujian",
        "tier": "3"
    },
    "Loudi": {
        "name": "娄底",
        "admaster": "娄底市",
        "name_en": "Loudi",
        "province": "湖南",
        "province_en": "Hunan",
        "tier": "5"
    },
    "Lu'an": {
        "name": "六安",
        "admaster": "六安市",
        "name_en": "Lu'an",
        "province": "安徽",
        "province_en": "Anhui",
        "tier": "5"
    },
    "Luohe": {
        "name": "漯河",
        "admaster": "漯河市",
        "name_en": "Luohe",
        "province": "河南",
        "province_en": "Henan",
        "tier": "5"
    },
    "Luoyang": {
        "name": "洛阳",
        "admaster": "洛阳市",
        "name_en": "Luoyang",
        "province": "河南",
        "province_en": "Henan",
        "tier": "3"
    },
    "Luzhou": {
        "name": "泸州",
        "admaster": "泸州市",
        "name_en": "Luzhou",
        "province": "四川",
        "province_en": "Sichuan",
        "tier": "5"
    },
    "Lüliang": {
        "name": "吕梁",
        "admaster": "吕梁市",
        "name_en": "Lüliang",
        "province": "山西",
        "province_en": "Shanxi",
        "tier": "5"
    },
    "Ma'anshan": {
        "name": "马鞍山",
        "admaster": "马鞍山市",
        "name_en": "Ma'anshan",
        "province": "安徽",
        "province_en": "Anhui",
        "tier": "3"
    },
    "Maoming": {
        "name": "茂名",
        "admaster": "茂名市",
        "name_en": "Maoming",
        "province": "广东",
        "province_en": "Guangdong",
        "tier": "5"
    },
    "Meishan": {
        "name": "眉山",
        "admaster": "眉山市",
        "name_en": "Meishan",
        "province": "四川",
        "province_en": "Sichuan",
        "tier": "3"
    },
    "Meizhou": {
        "name": "梅州",
        "admaster": "梅州市",
        "name_en": "Meizhou",
        "province": "广东",
        "province_en": "Guangdong",
        "tier": "5"
    },
    "Mianyang": {
        "name": "绵阳",
        "admaster": "绵阳市",
        "name_en": "Mianyang",
        "province": "四川",
        "province_en": "Sichuan",
        "tier": "3"
    },
    "Mudanjiang": {
        "name": "牡丹江",
        "admaster": "牡丹江市",
        "name_en": "Mudanjiang",
        "province": "黑龙江",
        "province_en": "Heilongjiang",
        "tier": "5"
    },
    "Nanchang": {
        "name": "南昌",
        "admaster": "南昌市",
        "name_en": "Nanchang",
        "province": "江西",
        "province_en": "Jiangxi",
        "tier": "2"
    },
    "Nanchong": {
        "name": "南充",
        "admaster": "南充市",
        "name_en": "Nanchong",
        "province": "四川",
        "province_en": "Sichuan",
        "tier": "3"
    },
    "Nanjing": {
        "name": "南京",
        "admaster": "南京市",
        "name_en": "Nanjing",
        "province": "江苏",
        "province_en": "Jiangsu",
        "tier": "new 1"
    },
    "Nanning": {
        "name": "南宁",
        "admaster": "南宁市",
        "name_en": "Nanning",
        "province": "广西",
        "province_en": "Guangxi",
        "tier": "2"
    },
    "Nanping": {
        "name": "南平",
        "admaster": "南平市",
        "name_en": "Nanping",
        "province": "福建",
        "province_en": "Fujian",
        "tier": "3"
    },
    "Nantong": {
        "name": "南通",
        "admaster": "南通市",
        "name_en": "Nantong",
        "province": "江苏",
        "province_en": "Jiangsu",
        "tier": "2"
    },
    "Nanyang": {
        "name": "南阳",
        "admaster": "南阳市",
        "name_en": "Nanyang",
        "province": "河南",
        "province_en": "Henan",
        "tier": "3"
    },
    "Naqu": {
        "name": "那曲",
        "admaster": "那曲地区",
        "name_en": "Naqu",
        "province": "西藏",
        "province_en": "Xizang",
        "tier": "5"
    },
    "Neijiang": {
        "name": "内江",
        "admaster": "内江市",
        "name_en": "Neijiang",
        "province": "四川",
        "province_en": "Sichuan",
        "tier": "5"
    },
    "Ningbo": {
        "name": "宁波",
        "admaster": "宁波市",
        "name_en": "Ningbo",
        "province": "浙江",
        "province_en": "Zhejiang",
        "tier": "new 1"
    },
    "Ningde": {
        "name": "宁德",
        "admaster": "宁德市",
        "name_en": "Ningde",
        "province": "福建",
        "province_en": "Fujian",
        "tier": "3"
    },
    "Nujiang": {
        "name": "怒江",
        "admaster": "怒江傈僳族自治州",
        "name_en": "Nujiang",
        "province": "云南",
        "province_en": "Yunnan",
        "tier": "5"
    },
    "Nyingchi": {
        "name": "林芝",
        "admaster": "林芝市",
        "name_en": "Nyingchi",
        "province": "西藏",
        "province_en": "Xizang",
        "tier": "5"
    },
    "Ordos": {
        "name": "鄂尔多斯",
        "admaster": "鄂尔多斯市",
        "name_en": "Ordos",
        "province": "内蒙古",
        "province_en": "Neimenggu",
        "tier": "5"
    },
    "Panjin": {
        "name": "盘锦",
        "admaster": "盘锦市",
        "name_en": "Panjin",
        "province": "辽宁",
        "province_en": "Liaoning",
        "tier": "3"
    },
    "Panzhihua": {
        "name": "攀枝花",
        "admaster": "攀枝花市",
        "name_en": "Panzhihua",
        "province": "四川",
        "province_en": "Sichuan",
        "tier": "5"
    },
    "Pingdingshan": {
        "name": "平顶山",
        "admaster": "平顶山市",
        "name_en": "Pingdingshan",
        "province": "河南",
        "province_en": "Henan",
        "tier": "5"
    },
    "Pingliang": {
        "name": "平凉",
        "admaster": "平凉市",
        "name_en": "Pingliang",
        "province": "甘肃",
        "province_en": "Gansu",
        "tier": "5"
    },
    "Pingxiang": {
        "name": "萍乡",
        "admaster": "萍乡市",
        "name_en": "Pingxiang",
        "province": "江西",
        "province_en": "Jiangxi",
        "tier": "5"
    },
    "Pu'er": {
        "name": "普洱",
        "admaster": "普洱市",
        "name_en": "Pu'er",
        "province": "云南",
        "province_en": "Yunnan",
        "tier": "5"
    },
    "Putian": {
        "name": "莆田",
        "admaster": "莆田市",
        "name_en": "Putian",
        "province": "福建",
        "province_en": "Fujian",
        "tier": "3"
    },
    "Puyang": {
        "name": "濮阳",
        "admaster": "濮阳市",
        "name_en": "Puyang",
        "province": "河南",
        "province_en": "Henan",
        "tier": "5"
    },
    "Qiandongnan": {
        "name": "黔东南",
        "admaster": "黔东南苗族侗族自治州",
        "name_en": "Qiandongnan",
        "province": "贵州",
        "province_en": "Guizhou",
        "tier": "5"
    },
    "Qiannan": {
        "name": "黔南",
        "admaster": "黔南布依族苗族自治州",
        "name_en": "Qiannan",
        "province": "贵州",
        "province_en": "guizhou",
        "tier": "5"
    },
    "Qianxinan": {
        "name": "黔西南",
        "admaster": "黔西南布依族苗族自治州",
        "name_en": "Qianxinan",
        "province": "贵州",
        "province_en": "Guizhou",
        "tier": "5"
    },
    "Qingdao": {
        "name": "青岛",
        "admaster": "青岛市",
        "name_en": "Qingdao",
        "province": "山东",
        "province_en": "Shandong",
        "tier": "new 1"
    },
    "Qingyang": {
        "name": "庆阳",
        "admaster": "庆阳市",
        "name_en": "Qingyang",
        "province": "甘肃",
        "province_en": "Gansu",
        "tier": "5"
    },
    "Qingyuan": {
        "name": "清远",
        "admaster": "清远市",
        "name_en": "Qingyuan",
        "province": "广东",
        "province_en": "Guangdong",
        "tier": "3"
    },
    "Qinhuangdao": {
        "name": "秦皇岛",
        "admaster": "秦皇岛市",
        "name_en": "Qinhuangdao",
        "province": "河北",
        "province_en": "Hebei",
        "tier": "3"
    },
    "Qinzhou": {
        "name": "钦州",
        "admaster": "钦州市",
        "name_en": "Qinzhou",
        "province": "广西",
        "province_en": "Guangxi",
        "tier": "5"
    },
    "Qiqihar": {
        "name": "齐齐哈尔",
        "admaster": "齐齐哈尔市",
        "name_en": "Qiqihar",
        "province": "黑龙江",
        "province_en": "Heilongjiang",
        "tier": "3"
    },
    "Qitaihe": {
        "name": "七台河",
        "admaster": "七台河市",
        "name_en": "Qitaihe",
        "province": "黑龙江",
        "province_en": "Heilongjiang",
        "tier": "5"
    },
    "Quanzhou": {
        "name": "泉州",
        "admaster": "泉州市",
        "name_en": "Quanzhou",
        "province": "福建",
        "province_en": "Fujian",
        "tier": "2"
    },
    "Qujing": {
        "name": "曲靖",
        "admaster": "曲靖市",
        "name_en": "Qujing",
        "province": "云南",
        "province_en": "Yunnan",
        "tier": "5"
    },
    "Quzhou": {
        "name": "衢州",
        "admaster": "衢州市",
        "name_en": "Quzhou",
        "province": "浙江",
        "province_en": "Zhejiang",
        "tier": "3"
    },
    "Rikaze": {
        "name": "日喀则",
        "admaster": "日喀则地区",
        "name_en": "Rikaze",
        "province": "西藏",
        "province_en": "Xizang",
        "tier": "5"
    },
    "Rizhao": {
        "name": "日照",
        "admaster": "日照市",
        "name_en": "Rizhao",
        "province": "山东",
        "province_en": "Shandong",
        "tier": "5"
    },
    "Sanmenxia": {
        "name": "三门峡",
        "admaster": "三门峡市",
        "name_en": "Sanmenxia",
        "province": "河南",
        "province_en": "Henan",
        "tier": "5"
    },
    "Sanming": {
        "name": "三明",
        "admaster": "三明市",
        "name_en": "Sanming",
        "province": "福建",
        "province_en": "Fujian",
        "tier": "3"
    },
    "Sanya": {
        "name": "三亚",
        "admaster": "三亚市",
        "name_en": "Sanya",
        "province": "海南",
        "province_en": "Hainan",
        "tier": "3"
    },
    "Shanghai": {
        "name": "上海",
        "admaster": "上海市",
        "name_en": "Shanghai",
        "province": "上海",
        "province_en": "Shanghai",
        "tier": "1"
    },
    "Shangluo": {
        "name": "商洛",
        "admaster": "商洛市",
        "name_en": "Shangluo",
        "province": "陕西",
        "province_en": "Shanxi",
        "tier": "5"
    },
    "Shangqiu": {
        "name": "商丘",
        "admaster": "商丘市",
        "name_en": "Shangqiu",
        "province": "河南",
        "province_en": "Henan",
        "tier": "5"
    },
    "Shangrao": {
        "name": "上饶",
        "admaster": "上饶市",
        "name_en": "Shangrao",
        "province": "江西",
        "province_en": "Jiangxi",
        "tier": "3"
    },
    "Shannan": {
        "name": "山南",
        "admaster": "山南市",
        "name_en": "Shannan",
        "province": "西藏",
        "province_en": "Xizang",
        "tier": "5"
    },
    "Shantou": {
        "name": "汕头",
        "admaster": "汕头市",
        "name_en": "Shantou",
        "province": "广东",
        "province_en": "Guangdong",
        "tier": "3"
    },
    "Shanwei": {
        "name": "汕尾",
        "admaster": "汕尾市",
        "name_en": "Shanwei",
        "province": "广东",
        "province_en": "Guangdong",
        "tier": "5"
    },
    "Shaoguan": {
        "name": "韶关",
        "admaster": "韶关市",
        "name_en": "Shaoguan",
        "province": "广东",
        "province_en": "Guangdong",
        "tier": "5"
    },
    "Shaoxing": {
        "name": "绍兴",
        "admaster": "绍兴市",
        "name_en": "Shaoxing",
        "province": "浙江",
        "province_en": "Zhejiang",
        "tier": "2"
    },
    "Shaoyang": {
        "name": "邵阳",
        "admaster": "邵阳市",
        "name_en": "Shaoyang",
        "province": "湖南",
        "province_en": "Hunan",
        "tier": "5"
    },
    "Shenyang": {
        "name": "沈阳",
        "admaster": "沈阳市",
        "name_en": "Shenyang",
        "province": "辽宁",
        "province_en": "Liaoning",
        "tier": "new 1"
    },
    "Shenzhen": {
        "name": "深圳",
        "admaster": "深圳市",
        "name_en": "Shenzhen",
        "province": "广东",
        "province_en": "Guangdong",
        "tier": "1"
    },
    "Shigatse": {
        "name": "日喀则",
        "admaster": "日喀则市",
        "name_en": "Shigatse",
        "province": "西藏",
        "province_en": "Xizang",
        "tier": "5"
    },
    "Shijiazhuang": {
        "name": "石家庄",
        "admaster": "石家庄市",
        "name_en": "Shijiazhuang",
        "province": "河北",
        "province_en": "Hebei",
        "tier": "2"
    },
    "Shiyan": {
        "name": "十堰",
        "admaster": "十堰市",
        "name_en": "Shiyan",
        "province": "湖北",
        "province_en": "Hubei",
        "tier": "5"
    },
    "Shizuishan": {
        "name": "石嘴山",
        "admaster": "石嘴山市",
        "name_en": "Shizuishan",
        "province": "宁夏",
        "province_en": "Ningxia",
        "tier": "5"
    },
    "Shuangyashan": {
        "name": "双鸭山",
        "admaster": "双鸭山市",
        "name_en": "Shuangyashan",
        "province": "黑龙江",
        "province_en": "Heilongjiang",
        "tier": "5"
    },
    "Shuozhou": {
        "name": "朔州",
        "admaster": "朔州市",
        "name_en": "Shuozhou",
        "province": "山西",
        "province_en": "Shanxi",
        "tier": "5"
    },
    "Siping": {
        "name": "四平",
        "admaster": "四平市",
        "name_en": "Siping",
        "province": "吉林",
        "province_en": "Jilin",
        "tier": "5"
    },
    "Songyuan": {
        "name": "松原",
        "admaster": "松原市",
        "name_en": "Songyuan",
        "province": "吉林",
        "province_en": "Jilin",
        "tier": "5"
    },
    "Suihua": {
        "name": "绥化",
        "admaster": "绥化市",
        "name_en": "Suihua",
        "province": "黑龙江",
        "province_en": "Heilongjiang",
        "tier": "5"
    },
    "Suining": {
        "name": "遂宁",
        "admaster": "遂宁市",
        "name_en": "Suining",
        "province": "四川",
        "province_en": "Sichuan",
        "tier": "5"
    },
    "Suizhou": {
        "name": "随州",
        "admaster": "随州市",
        "name_en": "Suizhou",
        "province": "湖北",
        "province_en": "Hubei",
        "tier": "5"
    },
    "Suqian": {
        "name": "宿迁",
        "admaster": "宿迁市",
        "name_en": "Suqian",
        "province": "江苏",
        "province_en": "Jiangsu",
        "tier": "5"
    },
    "Suzhou": {
        "name": "苏州",
        "admaster": "苏州市",
        "name_en": "Suzhou",
        "province": "江苏",
        "province_en": "Jiangsu",
        "tier": "new 1"
    },
    "Tacheng": {
        "name": "塔城",
        "admaster": "塔城地区",
        "name_en": "Tacheng",
        "province": "新疆",
        "province_en": "Xinjiang",
        "tier": "5"
    },
    "Tai'an": {
        "name": "泰安",
        "admaster": "泰安市",
        "name_en": "Tai'an",
        "province": "山东",
        "province_en": "Shandong",
        "tier": "3"
    },
    "Taiyuan": {
        "name": "太原",
        "admaster": "太原市",
        "name_en": "Taiyuan",
        "province": "山西",
        "province_en": "Shanxi",
        "tier": "2"
    },
    "Taizhou": {
        "name": "泰州",
        "admaster": "泰州市",
        "name_en": "Taizhou",
        "province": "江苏",
        "province_en": "Jiangsu",
        "tier": "3"
    },
    "Tangshan": {
        "name": "唐山",
        "admaster": "唐山市",
        "name_en": "Tangshan",
        "province": "河北",
        "province_en": "Hebei",
        "tier": "3"
    },
    "Tianjin": {
        "name": "天津",
        "admaster": "天津市",
        "name_en": "Tianjin",
        "province": "天津",
        "province_en": "Tianjin",
        "tier": "new 1"
    },
    "Tianshui": {
        "name": "天水",
        "admaster": "天水市",
        "name_en": "Tianshui",
        "province": "甘肃",
        "province_en": "Gansu",
        "tier": "5"
    },
    "Tieling": {
        "name": "铁岭",
        "admaster": "铁岭市",
        "name_en": "Tieling",
        "province": "辽宁",
        "province_en": "Liaoning",
        "tier": "5"
    },
    "Tongchuan": {
        "name": "铜川",
        "admaster": "铜川市",
        "name_en": "Tongchuan",
        "province": "陕西",
        "province_en": "Shanxi",
        "tier": "5"
    },
    "Tonghua": {
        "name": "通化",
        "admaster": "通化市",
        "name_en": "Tonghua",
        "province": "吉林",
        "province_en": "Jilin",
        "tier": "5"
    },
    "Tongliao": {
        "name": "通辽",
        "admaster": "通辽市",
        "name_en": "Tongliao",
        "province": "内蒙古",
        "province_en": "Neimenggu",
        "tier": "5"
    },
    "Tongling": {
        "name": "铜陵",
        "admaster": "铜陵市",
        "name_en": "Tongling",
        "province": "安徽",
        "province_en": "Anhui",
        "tier": "5"
    },
    "Tongren": {
        "name": "铜仁",
        "admaster": "铜仁市",
        "name_en": "Tongren",
        "province": "贵州",
        "province_en": "Guizhou",
        "tier": "5"
    },
    "Tulufan": {
        "name": "吐鲁番",
        "admaster": "吐鲁番地区",
        "name_en": "Tulufan",
        "province": "新疆",
        "province_en": "Xinjiang",
        "tier": "5"
    },
    "Turpan": {
        "name": "吐鲁番",
        "admaster": "吐鲁番市",
        "name_en": "Turpan",
        "province": "新疆",
        "province_en": "Xinjiang",
        "tier": "5"
    },
    "Ulanqab": {
        "name": "乌兰察布",
        "admaster": "乌兰察布市",
        "name_en": "Ulanqab",
        "province": "内蒙古",
        "province_en": "Neimenggu",
        "tier": "5"
    },
    "Urumqi": {
        "name": "乌鲁木齐",
        "admaster": "乌鲁木齐市",
        "name_en": "Urumqi",
        "province": "新疆",
        "province_en": "Xinjiang",
        "tier": "2"
    },
    "Weifang": {
        "name": "潍坊",
        "admaster": "潍坊市",
        "name_en": "Weifang",
        "province": "山东",
        "province_en": "Shandong",
        "tier": "5"
    },
    "Weihai": {
        "name": "威海",
        "admaster": "威海市",
        "name_en": "Weihai",
        "province": "山东",
        "province_en": "Shandong",
        "tier": "3"
    },
    "Weinan": {
        "name": "渭南",
        "admaster": "渭南市",
        "name_en": "Weinan",
        "province": "陕西",
        "province_en": "Shanxi",
        "tier": "5"
    },
    "Wenshan": {
        "name": "文山",
        "admaster": "文山壮族苗族自治州",
        "name_en": "Wenshan",
        "province": "云南",
        "province_en": "Yunnan",
        "tier": "5"
    },
    "Wenzhou": {
        "name": "温州",
        "admaster": "温州市",
        "name_en": "Wenzhou",
        "province": "浙江",
        "province_en": "Zhejiang",
        "tier": "2"
    },
    "Wuhai": {
        "name": "乌海",
        "admaster": "乌海市",
        "name_en": "Wuhai",
        "province": "内蒙古",
        "province_en": "Neimenggu",
        "tier": "5"
    },
    "Wuhan": {
        "name": "武汉",
        "admaster": "武汉市",
        "name_en": "Wuhan",
        "province": "湖北",
        "province_en": "Hubei",
        "tier": "new 1"
    },
    "Wuhu": {
        "name": "芜湖",
        "admaster": "芜湖市",
        "name_en": "Wuhu",
        "province": "安徽",
        "province_en": "Anhui",
        "tier": "3"
    },
    "Wuwei": {
        "name": "武威",
        "admaster": "武威市",
        "name_en": "Wuwei",
        "province": "甘肃",
        "province_en": "Gansu",
        "tier": "5"
    },
    "Wuxi": {
        "name": "无锡",
        "admaster": "无锡市",
        "name_en": "Wuxi",
        "province": "江苏",
        "province_en": "Jiangsu",
        "tier": "2"
    },
    "Wuzhong": {
        "name": "吴忠",
        "admaster": "吴忠市",
        "name_en": "Wuzhong",
        "province": "宁夏",
        "province_en": "Ningxia",
        "tier": "5"
    },
    "Wuzhou": {
        "name": "梧州",
        "admaster": "梧州市",
        "name_en": "Wuzhou",
        "province": "广西",
        "province_en": "Guangxi",
        "tier": "5"
    },
    "Xi'an": {
        "name": "西安",
        "admaster": "西安市",
        "name_en": "Xi'an",
        "province": "陕西",
        "province_en": "Shanxi",
        "tier": "new 1"
    },
    "Xiamen": {
        "name": "厦门",
        "admaster": "厦门市",
        "name_en": "Xiamen",
        "province": "福建",
        "province_en": "Fujian",
        "tier": "5"
    },
    "Xiangfan": {
        "name": "襄樊",
        "admaster": "襄樊市",
        "name_en": "Xiangfan",
        "province": "湖北",
        "province_en": "hubei",
        "tier": "5"
    },
    "Xiangtan": {
        "name": "湘潭",
        "admaster": "湘潭市",
        "name_en": "Xiangtan",
        "province": "湖南",
        "province_en": "Hunan",
        "tier": "5"
    },
    "Xiangxi": {
        "name": "湘西",
        "admaster": "湘西土家族苗族自治州",
        "name_en": "Xiangxi",
        "province": "湖南",
        "province_en": "Hunan",
        "tier": "5"
    },
    "Xianning": {
        "name": "咸宁",
        "admaster": "咸宁市",
        "name_en": "Xianning",
        "province": "湖北",
        "province_en": "Hubei",
        "tier": "5"
    },
    "Xianyang": {
        "name": "咸阳",
        "admaster": "咸阳市",
        "name_en": "Xianyang",
        "province": "陕西",
        "province_en": "Shanxi",
        "tier": "3"
    },
    "Xiaogan": {
        "name": "孝感",
        "admaster": "孝感市",
        "name_en": "Xiaogan",
        "province": "湖北",
        "province_en": "Hubei",
        "tier": "3"
    },
    "Xinganmeng": {
        "name": "兴安盟",
        "admaster": "兴安盟",
        "name_en": "Xinganmeng",
        "province": "内蒙古",
        "province_en": "Neimenggu",
        "tier": "5"
    },
    "Xingtai": {
        "name": "邢台",
        "admaster": "邢台市",
        "name_en": "Xingtai",
        "province": "河北",
        "province_en": "Hebei",
        "tier": "5"
    },
    "Xining": {
        "name": "西宁",
        "admaster": "西宁市",
        "name_en": "Xining",
        "province": "青海",
        "province_en": "Qinghai",
        "tier": "3"
    },
    "Xinxiang": {
        "name": "新乡",
        "admaster": "新乡市",
        "name_en": "Xinxiang",
        "province": "河南",
        "province_en": "Henan",
        "tier": "5"
    },
    "Xinyang": {
        "name": "信阳",
        "admaster": "信阳市",
        "name_en": "Xinyang",
        "province": "河南",
        "province_en": "Henan",
        "tier": "5"
    },
    "Xinyu": {
        "name": "新余",
        "admaster": "新余市",
        "name_en": "Xinyu",
        "province": "江西",
        "province_en": "Jiangxi",
        "tier": "5"
    },
    "Xinzhou": {
        "name": "忻州",
        "admaster": "忻州市",
        "name_en": "Xinzhou",
        "province": "山西",
        "province_en": "Shanxi",
        "tier": "5"
    },
    "Xishuangbanna": {
        "name": "西双版纳",
        "admaster": "西双版纳傣族自治州",
        "name_en": "Xishuangbanna",
        "province": "云南",
        "province_en": "Yunnan",
        "tier": "5"
    },
    "Xuancheng": {
        "name": "宣城",
        "admaster": "宣城市",
        "name_en": "Xuancheng",
        "province": "安徽",
        "province_en": "Anhui",
        "tier": "5"
    },
    "Xuchang": {
        "name": "许昌",
        "admaster": "许昌市",
        "name_en": "Xuchang",
        "province": "河南",
        "province_en": "Henan",
        "tier": "5"
    },
    "Xuzhou": {
        "name": "徐州",
        "admaster": "徐州市",
        "name_en": "Xuzhou",
        "province": "江苏",
        "province_en": "Jiangsu",
        "tier": "2"
    },
    "Ya'an": {
        "name": "雅安",
        "admaster": "雅安市",
        "name_en": "Ya'an",
        "province": "四川",
        "province_en": "Sichuan",
        "tier": "5"
    },
    "Yan'an": {
        "name": "延安",
        "admaster": "延安市",
        "name_en": "Yan'an",
        "province": "陕西",
        "province_en": "Shanxi",
        "tier": "5"
    },
    "Yanbian": {
        "name": "延边",
        "admaster": "延边朝鲜族自治州",
        "name_en": "Yanbian",
        "province": "吉林",
        "province_en": "Jilin",
        "tier": "3"
    },
    "Yancheng": {
        "name": "盐城",
        "admaster": "盐城市",
        "name_en": "Yancheng",
        "province": "江苏",
        "province_en": "Jiangsu",
        "tier": "3"
    },
    "Yangjiang": {
        "name": "阳江",
        "admaster": "阳江市",
        "name_en": "Yangjiang",
        "province": "广东",
        "province_en": "Guangdong",
        "tier": "5"
    },
    "Yangquan": {
        "name": "阳泉",
        "admaster": "阳泉市",
        "name_en": "Yangquan",
        "province": "山西",
        "province_en": "Shanxi",
        "tier": "5"
    },
    "Yangzhou": {
        "name": "扬州",
        "admaster": "扬州市",
        "name_en": "Yangzhou",
        "province": "江苏",
        "province_en": "Jiangsu",
        "tier": "3"
    },
    "Yantai": {
        "name": "烟台",
        "admaster": "烟台市",
        "name_en": "Yantai",
        "province": "山东",
        "province_en": "Shandong",
        "tier": "2"
    },
    "Yibin": {
        "name": "宜宾",
        "admaster": "宜宾市",
        "name_en": "Yibin",
        "province": "四川",
        "province_en": "Sichuan",
        "tier": "5"
    },
    "Yichang": {
        "name": "宜昌",
        "admaster": "宜昌市",
        "name_en": "Yichang",
        "province": "湖北",
        "province_en": "Hubei",
        "tier": "3"
    },
    "Yichun": {
        "name": "宜春",
        "admaster": "宜春市",
        "name_en": "Yichun",
        "province": "江西",
        "province_en": "Jiangxi",
        "tier": "5"
    },
    "Yili": {
        "name": "伊犁",
        "admaster": "伊犁哈萨克自治州",
        "name_en": "Yili",
        "province": "新疆",
        "province_en": "Xinjiang",
        "tier": "5"
    },
    "Yinchuan": {
        "name": "银川",
        "admaster": "银川市",
        "name_en": "Yinchuan",
        "province": "宁夏",
        "province_en": "Ningxia",
        "tier": "3"
    },
    "Yingkou": {
        "name": "营口",
        "admaster": "营口市",
        "name_en": "Yingkou",
        "province": "辽宁",
        "province_en": "Liaoning",
        "tier": "3"
    },
    "Yingtan": {
        "name": "鹰潭",
        "admaster": "鹰潭市",
        "name_en": "Yingtan",
        "province": "江西",
        "province_en": "Jiangxi",
        "tier": "5"
    },
    "Yiyang": {
        "name": "益阳",
        "admaster": "益阳市",
        "name_en": "Yiyang",
        "province": "湖南",
        "province_en": "Hunan",
        "tier": "5"
    },
    "Yongzhou": {
        "name": "永州",
        "admaster": "永州市",
        "name_en": "Yongzhou",
        "province": "湖南",
        "province_en": "Hunan",
        "tier": "5"
    },
    "Yueyang": {
        "name": "岳阳",
        "admaster": "岳阳市",
        "name_en": "Yueyang",
        "province": "湖南",
        "province_en": "Hunan",
        "tier": "3"
    },
    "Yulin": {
        "name": "玉林",
        "admaster": "玉林市",
        "name_en": "Yulin",
        "province": "广西",
        "province_en": "Guangxi",
        "tier": "5"
    },
    "Yuncheng": {
        "name": "运城",
        "admaster": "运城市",
        "name_en": "Yuncheng",
        "province": "山西",
        "province_en": "Shanxi",
        "tier": "5"
    },
    "Yunfu": {
        "name": "云浮",
        "admaster": "云浮市",
        "name_en": "Yunfu",
        "province": "广东",
        "province_en": "Guangdong",
        "tier": "5"
    },
    "Yushu": {
        "name": "玉树",
        "admaster": "玉树藏族自治州",
        "name_en": "Yushu",
        "province": "青海",
        "province_en": "Qinghai",
        "tier": "5"
    },
    "Yuxi": {
        "name": "玉溪",
        "admaster": "玉溪市",
        "name_en": "Yuxi",
        "province": "云南",
        "province_en": "Yunnan",
        "tier": "5"
    },
    "Zaozhuang": {
        "name": "枣庄",
        "admaster": "枣庄市",
        "name_en": "Zaozhuang",
        "province": "山东",
        "province_en": "Shandong",
        "tier": "5"
    },
    "Zhangjiajie": {
        "name": "张家界",
        "admaster": "张家界市",
        "name_en": "Zhangjiajie",
        "province": "湖南",
        "province_en": "Hunan",
        "tier": "5"
    },
    "Zhangjiakou": {
        "name": "张家口",
        "admaster": "张家口市",
        "name_en": "Zhangjiakou",
        "province": "河北",
        "province_en": "Hebei",
        "tier": "5"
    },
    "Zhangye": {
        "name": "张掖",
        "admaster": "张掖市",
        "name_en": "Zhangye",
        "province": "甘肃",
        "province_en": "Gansu",
        "tier": "5"
    },
    "Zhangzhou": {
        "name": "漳州",
        "admaster": "漳州市",
        "name_en": "Zhangzhou",
        "province": "福建",
        "province_en": "Fujian",
        "tier": "3"
    },
    "Zhanjiang": {
        "name": "湛江",
        "admaster": "湛江市",
        "name_en": "Zhanjiang",
        "province": "广东",
        "province_en": "Guangdong",
        "tier": "3"
    },
    "Zhaoqing": {
        "name": "肇庆",
        "admaster": "肇庆市",
        "name_en": "Zhaoqing",
        "province": "广东",
        "province_en": "Guangdong",
        "tier": "3"
    },
    "Zhaotong": {
        "name": "昭通",
        "admaster": "昭通市",
        "name_en": "Zhaotong",
        "province": "云南",
        "province_en": "Yunnan",
        "tier": "5"
    },
    "Zhengzhou": {
        "name": "郑州",
        "admaster": "郑州市",
        "name_en": "Zhengzhou",
        "province": "河南",
        "province_en": "Henan",
        "tier": "new 1"
    },
    "Zhenjiang": {
        "name": "镇江",
        "admaster": "镇江市",
        "name_en": "Zhenjiang",
        "province": "江苏",
        "province_en": "Jiangsu",
        "tier": "3"
    },
    "Zhongshan": {
        "name": "中山",
        "admaster": "中山市",
        "name_en": "Zhongshan",
        "province": "广东",
        "province_en": "Guangdong",
        "tier": "2"
    },
    "Zhongwei": {
        "name": "中卫",
        "admaster": "中卫市",
        "name_en": "Zhongwei",
        "province": "宁夏",
        "province_en": "Ningxia",
        "tier": "5"
    },
    "Zhoukou": {
        "name": "周口",
        "admaster": "周口市",
        "name_en": "Zhoukou",
        "province": "河南",
        "province_en": "Henan",
        "tier": "5"
    },
    "Zhoushan": {
        "name": "舟山",
        "admaster": "舟山市",
        "name_en": "Zhoushan",
        "province": "浙江",
        "province_en": "Zhejiang",
        "tier": "3"
    },
    "Zhuhai": {
        "name": "珠海",
        "admaster": "珠海市",
        "name_en": "Zhuhai",
        "province": "广东",
        "province_en": "Guangdong",
        "tier": "2"
    },
    "Zhumadian": {
        "name": "驻马店",
        "admaster": "驻马店市",
        "name_en": "Zhumadian",
        "province": "河南",
        "province_en": "Henan",
        "tier": "5"
    },
    "Zhuzhou": {
        "name": "株洲",
        "admaster": "株洲市",
        "name_en": "Zhuzhou",
        "province": "湖南",
        "province_en": "Hunan",
        "tier": "3"
    },
    "Zibo": {
        "name": "淄博",
        "admaster": "淄博市",
        "name_en": "Zibo",
        "province": "山东",
        "province_en": "Shandong",
        "tier": "3"
    },
    "Zigong": {
        "name": "自贡",
        "admaster": "自贡市",
        "name_en": "Zigong",
        "province": "四川",
        "province_en": "Sichuan",
        "tier": "5"
    },
    "Ziyang": {
        "name": "资阳",
        "admaster": "资阳市",
        "name_en": "Ziyang",
        "province": "四川",
        "province_en": "Sichuan",
        "tier": "5"
    },
    "Zunyi": {
        "name": "遵义",
        "admaster": "遵义市",
        "name_en": "Zunyi",
        "province": "贵州",
        "province_en": "Guizhou",
        "tier": "5"
    }
}