{
    "七台河": {
        "name": "七台河",
        "admaster": "七台河市",
        "name_en": "Qitaihe",
        "province": "黑龙江",
        "province_en": "Heilongjiang",
        "tier": "5",
        "lat": "45.77630032154785",
        "lng": "131.01154459102744"
    },
    "三亚": {
        "name": "三亚",
        "admaster": "三亚市",
        "name_en": "Sanya",
        "province": "海南",
        "province_en": "Hainan",
        "tier": "3",
        "lat": "18.258736291747855",
        "lng": "109.51855670139908"
    },
    "三明": {
        "name": "三明",
        "admaster": "三明市",
        "name_en": "Sanming",
        "province": "福建",
        "province_en": "Fujian",
        "tier": "3",
        "lat": "26.269736515991838",
        "lng": "117.64552116782143"
    },
    "三门峡": {
        "name": "三门峡",
        "admaster": "三门峡市",
        "name_en": "Sanmenxia",
        "province": "河南",
        "province_en": "Henan",
        "tier": "5",
        "lat": "34.778327249459984",
        "lng": "111.2065332238741"
    },
    "上海": {
        "name": "上海",
        "admaster": "上海市",
        "name_en": "Shanghai",
        "province": "上海",
        "province_en": "Shanghai",
        "tier": "1",
        "lat": "31.235929042252014",
        "lng": "121.48053886017651"
    },
    "上饶": {
        "name": "上饶",
        "admaster": "上饶市",
        "name_en": "Shangrao",
        "province": "江西",
        "province_en": "Jiangxi",
        "tier": "3",
        "lat": "28.460625921851733",
        "lng": "117.94945960312224"
    },
    "东莞": {
        "name": "东莞",
        "admaster": "东莞市",
        "name_en": "Dongguan",
        "province": "广东",
        "province_en": "Guangdong",
        "tier": "new 1",
        "lat": "23.02730841164339",
        "lng": "113.75842045787648"
    },
    "东营": {
        "name": "东营",
        "admaster": "东营市",
        "name_en": "Dongying",
        "province": "山东",
        "province_en": "Shandong",
        "tier": "3",
        "lat": "37.43964182632334",
        "lng": "118.68138493513693"
    },
    "中卫": {
        "name": "中卫",
        "admaster": "中卫市",
        "name_en": "Zhongwei",
        "province": "宁夏",
        "province_en": "Ningxia",
        "tier": "5",
        "lat": "37.50570141870293",
        "lng": "105.20357090088713"
    },
    "中山": {
        "name": "中山",
        "admaster": "中山市",
        "name_en": "Zhongshan",
        "province": "广东",
        "province_en": "Guangdong",
        "tier": "2",
        "lat": "22.5223146707905",
        "lng": "113.39942236263188"
    },
    "临汾": {
        "name": "临汾",
        "admaster": "临汾市",
        "name_en": "Linfen",
        "province": "山西",
        "province_en": "Shanxi",
        "tier": "5",
        "lat": "36.093741895419726",
        "lng": "111.52553022403073"
    },
    "临沂": {
        "name": "临沂",
        "admaster": "临沂市",
        "name_en": "Linyi",
        "province": "山东",
        "province_en": "Shandong",
        "tier": "3",
        "lat": "35.11067124236514",
        "lng": "118.36353300501388"
    },
    "临沧": {
        "name": "临沧",
        "admaster": "临沧市",
        "name_en": "Lincang",
        "province": "云南",
        "province_en": "Yunnan",
        "tier": "5",
        "lat": "23.89046855627851",
        "lng": "100.09544042014869"
    },
    "丹东": {
        "name": "丹东",
        "admaster": "丹东市",
        "name_en": "Dandong",
        "province": "辽宁",
        "province_en": "Liaoning",
        "tier": "3",
        "lat": "40.00640870559368",
        "lng": "124.36154728159079"
    },
    "丽水": {
        "name": "丽水",
        "admaster": "丽水市",
        "name_en": "Lishui",
        "province": "浙江",
        "province_en": "Zhejiang",
        "tier": "3",
        "lat": "28.473278180563412",
        "lng": "119.9295730584414"
    },
    "丽江": {
        "name": "丽江",
        "admaster": "丽江市",
        "name_en": "Lijiang",
        "province": "云南",
        "province_en": "Yunnan",
        "tier": "3",
        "lat": "26.860657438064884",
        "lng": "100.23246452903453"
    },
    "乌兰察布": {
        "name": "乌兰察布",
        "admaster": "乌兰察布市",
        "name_en": "Ulanqab",
        "province": "内蒙古",
        "province_en": "Neimenggu",
        "tier": "5",
        "lat": "41.00074832767381",
        "lng": "113.13946767446333"
    },
    "乌海": {
        "name": "乌海",
        "admaster": "乌海市",
        "name_en": "Wuhai",
        "province": "内蒙古",
        "province_en": "Neimenggu",
        "tier": "5",
        "lat": "39.6620063648907",
        "lng": "106.80039104999656"
    },
    "乌鲁木齐": {
        "name": "乌鲁木齐",
        "admaster": "乌鲁木齐市",
        "name_en": "Urumqi",
        "province": "新疆",
        "province_en": "Xinjiang",
        "tier": "2",
        "lat": "43.830763204290484",
        "lng": "87.62443993536046"
    },
    "乐山": {
        "name": "乐山",
        "admaster": "乐山市",
        "name_en": "Leshan",
        "province": "四川",
        "province_en": "Sichuan",
        "tier": "5",
        "lat": "29.55794071745811",
        "lng": "103.7725376036347"
    },
    "九江": {
        "name": "九江",
        "admaster": "九江市",
        "name_en": "Jiujiang",
        "province": "江西",
        "province_en": "Jiangxi",
        "tier": "3",
        "lat": "29.711340559079343",
        "lng": "116.00753491163063"
    },
    "云浮": {
        "name": "云浮",
        "admaster": "云浮市",
        "name_en": "Yunfu",
        "province": "广东",
        "province_en": "Guangdong",
        "tier": "5",
        "lat": "22.920911970342857",
        "lng": "112.05151269959146"
    },
    "亳州": {
        "name": "亳州",
        "admaster": "亳州市",
        "name_en": "Bozhou",
        "province": "安徽",
        "province_en": "Anhui",
        "tier": "5",
        "lat": "33.850642695788835",
        "lng": "115.7844632112745"
    },
    "伊春": {
        "name": "伊春",
        "admaster": "伊春市",
        "name_en": "Yichun",
        "province": "黑龙江",
        "province_en": "Heilongjiang",
        "tier": "5",
        "lat": "47.733318457230936",
        "lng": "128.84754638019822"
    },
    "伊犁": {
        "name": "伊犁",
        "admaster": "伊犁哈萨克自治州",
        "name_en": "Yili",
        "province": "新疆",
        "province_en": "Xinjiang",
        "tier": "5",
        "lat": "43.92272313749215",
        "lng": "81.3305377475322"
    },
    "佛山": {
        "name": "佛山",
        "admaster": "佛山市",
        "name_en": "Foshan",
        "province": "广东",
        "province_en": "Guangdong",
        "tier": "2",
        "lat": "23.02775875078891",
        "lng": "113.12851219549718"
    },
    "佳木斯": {
        "name": "佳木斯",
        "admaster": "佳木斯市",
        "name_en": "Jiamusi",
        "province": "黑龙江",
        "province_en": "Heilongjiang",
        "tier": "5",
        "lat": "46.80568999085779",
        "lng": "130.327359092573"
    },
    "保定": {
        "name": "保定",
        "admaster": "保定市",
        "name_en": "Baoding",
        "province": "河北",
        "province_en": "Hebei",
        "tier": "3",
        "lat": "38.87998776845534",
        "lng": "115.47146383768579"
    },
    "保山": {
        "name": "保山",
        "admaster": "保山市",
        "name_en": "Baoshan",
        "province": "云南",
        "province_en": "Yunnan",
        "tier": "5",
        "lat": "25.139038793265964",
        "lng": "99.17727328581788"
    },
    "信阳": {
        "name": "信阳",
        "admaster": "信阳市",
        "name_en": "Xinyang",
        "province": "河南",
        "province_en": "Henan",
        "tier": "5",
        "lat": "32.15301454753105",
        "lng": "114.09748283304512"
    },
    "儋州": {
        "name": "儋州",
        "admaster": "儋州市",
        "name_en": "Danzhou",
        "province": "海南",
        "province_en": "Hainan",
        "tier": "5",
        "lat": "19.64278758232148",
        "lng": "109.1739880875565"
    },
    "克孜勒苏柯尔克孜": {
        "name": "克孜勒苏柯尔克孜",
        "admaster": "克孜勒苏柯尔克孜自治州",
        "name_en": "Kezilesukeerkezi",
        "province": "新疆",
        "province_en": "xinjiang",
        "tier": "5",
        "lat": "39.72047120487073",
        "lng": "76.17430867621205"
    },
    "克拉玛依": {
        "name": "克拉玛依",
        "admaster": "克拉玛依市",
        "name_en": "Karamay",
        "province": "新疆",
        "province_en": "Xinjiang",
        "tier": "5",
        "lat": "45.58567523781376",
        "lng": "84.89590053887504"
    },
    "六安": {
        "name": "六安",
        "admaster": "六安市",
        "name_en": "Lu'an",
        "province": "安徽",
        "province_en": "Anhui",
        "tier": "5",
        "lat": "31.741450815322555",
        "lng": "116.52640966418569"
    },
    "六盘水": {
        "name": "六盘水",
        "admaster": "六盘水市",
        "name_en": "Liupanshui",
        "province": "贵州",
        "province_en": "Guizhou",
        "tier": "5",
        "lat": "26.598833108257494",
        "lng": "104.8375546023468"
    },
    "兰州": {
        "name": "兰州",
        "admaster": "兰州市",
        "name_en": "Lanzhou",
        "province": "甘肃",
        "province_en": "Gansu",
        "tier": "2",
        "lat": "36.067234693545565",
        "lng": "103.84052119633628"
    },
    "兴安盟": {
        "name": "兴安盟",
        "admaster": "兴安盟",
        "name_en": "Xinganmeng",
        "province": "内蒙古",
        "province_en": "Neimenggu",
        "tier": "5",
        "lat": "46.08846371321896",
        "lng": "122.04436452582519"
    },
    "内江": {
        "name": "内江",
        "admaster": "内江市",
        "name_en": "Neijiang",
        "province": "四川",
        "province_en": "Sichuan",
        "tier": "5",
        "lat": "29.58588653832045",
        "lng": "105.06458802499718"
    },
    "凉山": {
        "name": "凉山",
        "admaster": "凉山彝族自治州",
        "name_en": "Liangshan",
        "province": "四川",
        "province_en": "Sichuan",
        "tier": "5",
        "lat": "27.88775230036972",
        "lng": "102.2735026809702"
    },
    "包头": {
        "name": "包头",
        "admaster": "包头市",
        "name_en": "Baotou",
        "province": "内蒙古",
        "province_en": "Neimenggu",
        "tier": "3",
        "lat": "40.66292878826139",
        "lng": "109.84654350721243"
    },
    "北京": {
        "name": "北京",
        "admaster": "北京市",
        "name_en": "Beijing",
        "province": "北京",
        "province_en": "Beijing",
        "tier": "5",
        "lat": "39.910924547299565",
        "lng": "116.4133836971231"
    },
    "北海": {
        "name": "北海",
        "admaster": "北海市",
        "name_en": "Beihai",
        "province": "广西",
        "province_en": "Guangxi",
        "tier": "5",
        "lat": "21.48683649576942",
        "lng": "109.126533212566"
    },
    "十堰": {
        "name": "十堰",
        "admaster": "十堰市",
        "name_en": "Shiyan",
        "province": "湖北",
        "province_en": "Hubei",
        "tier": "5",
        "lat": "32.63506185840116",
        "lng": "110.80452956069568"
    },
    "南京": {
        "name": "南京",
        "admaster": "南京市",
        "name_en": "Nanjing",
        "province": "江苏",
        "province_en": "Jiangsu",
        "tier": "new 1",
        "lat": "32.06465288561847",
        "lng": "118.80242172124585"
    },
    "南充": {
        "name": "南充",
        "admaster": "南充市",
        "name_en": "Nanchong",
        "province": "四川",
        "province_en": "Sichuan",
        "tier": "3",
        "lat": "30.843782508337036",
        "lng": "106.11750261487227"
    },
    "南宁": {
        "name": "南宁",
        "admaster": "南宁市",
        "name_en": "Nanning",
        "province": "广西",
        "province_en": "Guangxi",
        "tier": "2",
        "lat": "22.822606601187154",
        "lng": "108.37345082581861"
    },
    "南平": {
        "name": "南平",
        "admaster": "南平市",
        "name_en": "Nanping",
        "province": "福建",
        "province_en": "Fujian",
        "tier": "3",
        "lat": "26.647772874203266",
        "lng": "118.1843695481426"
    },
    "南昌": {
        "name": "南昌",
        "admaster": "南昌市",
        "name_en": "Nanchang",
        "province": "江西",
        "province_en": "Jiangxi",
        "tier": "2",
        "lat": "28.68945529506072",
        "lng": "115.86458944231661"
    },
    "南通": {
        "name": "南通",
        "admaster": "南通市",
        "name_en": "Nantong",
        "province": "江苏",
        "province_en": "Jiangsu",
        "tier": "2",
        "lat": "31.98654943120089",
        "lng": "120.90159173866185"
    },
    "南阳": {
        "name": "南阳",
        "admaster": "南阳市",
        "name_en": "Nanyang",
        "province": "河南",
        "province_en": "Henan",
        "tier": "3",
        "lat": "32.99656220465144",
        "lng": "112.53450131351325"
    },
    "博尔塔拉": {
        "name": "博尔塔拉",
        "admaster": "博尔塔拉蒙古自治州",
        "name_en": "Boertala",
        "province": "新疆",
        "province_en": "Xinjiang",
        "tier": "5",
        "lat": "44.9121964134647",
        "lng": "82.07291475827434"
    },
    "厦门": {
        "name": "厦门",
        "admaster": "厦门市",
        "name_en": "Xiamen",
        "province": "福建",
        "province_en": "Fujian",
        "tier": "5",
        "lat": "24.485406605176305",
        "lng": "118.09643549976651"
    },
    "双鸭山": {
        "name": "双鸭山",
        "admaster": "双鸭山市",
        "name_en": "Shuangyashan",
        "province": "黑龙江",
        "province_en": "Heilongjiang",
        "tier": "5",
        "lat": "46.65318589588607",
        "lng": "131.16534168078073"
    },
    "台州": {
        "name": "台州",
        "admaster": "台州市",
        "name_en": "Taizhou",
        "province": "浙江",
        "province_en": "Zhejiang",
        "tier": "2",
        "lat": "28.66219405599615",
        "lng": "121.42743470427969"
    },
    "合肥": {
        "name": "合肥",
        "admaster": "合肥市",
        "name_en": "Hefei",
        "province": "安徽",
        "province_en": "Anhui",
        "tier": "2",
        "lat": "31.826577833686887",
        "lng": "117.23344266497664"
    },
    "吉安": {
        "name": "吉安",
        "admaster": "吉安市",
        "name_en": "Ji'an",
        "province": "江西",
        "province_en": "Jiangxi",
        "tier": "5",
        "lat": "27.119726826070448",
        "lng": "115.00051072001253"
    },
    "吉林": {
        "name": "吉林",
        "admaster": "吉林市",
        "name_en": "Jilin",
        "province": "吉林",
        "province_en": "Jilin",
        "tier": "3",
        "lat": "43.84356783457924",
        "lng": "126.55563450495482"
    },
    "吐鲁番": {
        "name": "吐鲁番",
        "admaster": "吐鲁番市",
        "name_en": "Turpan",
        "province": "新疆",
        "province_en": "Xinjiang",
        "tier": "5",
        "lat": "42.95698484877124",
        "lng": "89.1972972460079"
    },
    "吕梁": {
        "name": "吕梁",
        "admaster": "吕梁市",
        "name_en": "Lüliang",
        "province": "山西",
        "province_en": "Shanxi",
        "tier": "5",
        "lat": "37.524497749577115",
        "lng": "111.15044967529185"
    },
    "吴忠": {
        "name": "吴忠",
        "admaster": "吴忠市",
        "name_en": "Wuzhong",
        "province": "宁夏",
        "province_en": "Ningxia",
        "tier": "5",
        "lat": "38.00371291345338",
        "lng": "106.20537126663626"
    },
    "周口": {
        "name": "周口",
        "admaster": "周口市",
        "name_en": "Zhoukou",
        "province": "河南",
        "province_en": "Henan",
        "tier": "5",
        "lat": "33.6318288757022",
        "lng": "114.70348251482332"
    },
    "呼伦贝尔": {
        "name": "呼伦贝尔",
        "admaster": "呼伦贝尔市",
        "name_en": "Hulunbuir",
        "province": "内蒙古",
        "province_en": "Neimenggu",
        "tier": "5",
        "lat": "49.21844647556481",
        "lng": "119.77237049946636"
    },
    "呼和浩特": {
        "name": "呼和浩特",
        "admaster": "呼和浩特市",
        "name_en": "Hohhot",
        "province": "内蒙古",
        "province_en": "Neimenggu",
        "tier": "3",
        "lat": "40.84842299711348",
        "lng": "111.75550856170946"
    },
    "和田": {
        "name": "和田",
        "admaster": "和田地区",
        "name_en": "Hetian",
        "province": "新疆",
        "province_en": "Xinjiang",
        "tier": "5",
        "lat": "37.12044646304192",
        "lng": "79.9285070635119"
    },
    "咸宁": {
        "name": "咸宁",
        "admaster": "咸宁市",
        "name_en": "Xianning",
        "province": "湖北",
        "province_en": "Hubei",
        "tier": "5",
        "lat": "29.847055947646492",
        "lng": "114.32851909026844"
    },
    "咸阳": {
        "name": "咸阳",
        "admaster": "咸阳市",
        "name_en": "Xianyang",
        "province": "陕西",
        "province_en": "Shanxi",
        "tier": "3",
        "lat": "34.335476293368586",
        "lng": "108.71542245143303"
    },
    "哈密": {
        "name": "哈密",
        "admaster": "哈密地区",
        "name_en": "Hami",
        "province": "新疆",
        "province_en": "Xinjiang",
        "tier": "5",
        "lat": "",
        "lng": ""
    },
    "哈尔滨": {
        "name": "哈尔滨",
        "admaster": "哈尔滨市",
        "name_en": "Harbin",
        "province": "黑龙江",
        "province_en": "Heilongjiang",
        "tier": "2",
        "lat": "45.808825827952184",
        "lng": "126.54161509031663"
    },
    "唐山": {
        "name": "唐山",
        "admaster": "唐山市",
        "name_en": "Tangshan",
        "province": "河北",
        "province_en": "Hebei",
        "tier": "3",
        "lat": "39.63658372414733",
        "lng": "118.18645947203979"
    },
    "商丘": {
        "name": "商丘",
        "admaster": "商丘市",
        "name_en": "Shangqiu",
        "province": "河南",
        "province_en": "Henan",
        "tier": "5",
        "lat": "34.4202016658586",
        "lng": "115.66244933826238"
    },
    "商洛": {
        "name": "商洛",
        "admaster": "商洛市",
        "name_en": "Shangluo",
        "province": "陕西",
        "province_en": "Shanxi",
        "tier": "5",
        "lat": "33.87863385220776",
        "lng": "109.92441788136406"
    },
    "喀什": {
        "name": "喀什",
        "admaster": "喀什地区",
        "name_en": "Kashen",
        "province": "新疆",
        "province_en": "Xinjiang",
        "tier": "5",
        "lat": "39.47609674864479",
        "lng": "75.99639055639747"
    },
    "嘉兴": {
        "name": "嘉兴",
        "admaster": "嘉兴市",
        "name_en": "Jiaxing",
        "province": "浙江",
        "province_en": "Zhejiang",
        "tier": "2",
        "lat": "30.750974830920143",
        "lng": "120.76355182586005"
    },
    "嘉峪关": {
        "name": "嘉峪关",
        "admaster": "嘉峪关市",
        "name_en": "Jiayuguan",
        "province": "甘肃",
        "province_en": "Gansu",
        "tier": "5",
        "lat": "39.77796014739059",
        "lng": "98.29620384300111"
    },
    "四平": {
        "name": "四平",
        "admaster": "四平市",
        "name_en": "Siping",
        "province": "吉林",
        "province_en": "Jilin",
        "tier": "5",
        "lat": "43.171993571561",
        "lng": "124.35648155715893"
    },
    "固原": {
        "name": "固原",
        "admaster": "固原市",
        "name_en": "Guyuan",
        "province": "宁夏",
        "province_en": "Ningxia",
        "tier": "5",
        "lat": "36.02161725801098",
        "lng": "106.24857742607188"
    },
    "塔城": {
        "name": "塔城",
        "admaster": "塔城地区",
        "name_en": "Tacheng",
        "province": "新疆",
        "province_en": "Xinjiang",
        "tier": "5",
        "lat": "46.750948254373434",
        "lng": "82.9872355184064"
    },
    "大兴安岭": {
        "name": "大兴安岭",
        "admaster": "大兴安岭地区",
        "name_en": "Daxinganling",
        "province": "黑龙江",
        "province_en": "Heilongjiang",
        "tier": "5",
        "lat": "50.42002595502784",
        "lng": "124.15292785448057"
    },
    "大同": {
        "name": "大同",
        "admaster": "大同市",
        "name_en": "Datong",
        "province": "山西",
        "province_en": "Shanxi",
        "tier": "5",
        "lat": "40.0824687161612",
        "lng": "113.30643625858623"
    },
    "大庆": {
        "name": "大庆",
        "admaster": "大庆市",
        "name_en": "Daqing",
        "province": "黑龙江",
        "province_en": "Heilongjiang",
        "tier": "3",
        "lat": "46.59363317672175",
        "lng": "125.10865763402039"
    },
    "大理": {
        "name": "大理",
        "admaster": "大理白族自治州",
        "name_en": "Dali",
        "province": "云南",
        "province_en": "Yunnan",
        "tier": "5",
        "lat": "25.59760490545194",
        "lng": "100.23651930044413"
    },
    "大连": {
        "name": "大连",
        "admaster": "大连市",
        "name_en": "Dalian",
        "province": "辽宁",
        "province_en": "Liaoning",
        "tier": "new 1",
        "lat": "38.9189536667856",
        "lng": "121.62163148459285"
    },
    "天水": {
        "name": "天水",
        "admaster": "天水市",
        "name_en": "Tianshui",
        "province": "甘肃",
        "province_en": "Gansu",
        "tier": "5",
        "lat": "34.58741188165064",
        "lng": "105.73141674566955"
    },
    "天津": {
        "name": "天津",
        "admaster": "天津市",
        "name_en": "Tianjin",
        "province": "天津",
        "province_en": "Tianjin",
        "tier": "new 1",
        "lat": "39.093667843403956",
        "lng": "117.2095232146708"
    },
    "太原": {
        "name": "太原",
        "admaster": "太原市",
        "name_en": "Taiyuan",
        "province": "山西",
        "province_en": "Shanxi",
        "tier": "2",
        "lat": "37.87698902884778",
        "lng": "112.55639149167204"
    },
    "威海": {
        "name": "威海",
        "admaster": "威海市",
        "name_en": "Weihai",
        "province": "山东",
        "province_en": "Shandong",
        "tier": "3",
        "lat": "37.5164305480148",
        "lng": "122.12754097831325"
    },
    "娄底": {
        "name": "娄底",
        "admaster": "娄底市",
        "name_en": "Loudi",
        "province": "湖南",
        "province_en": "Hunan",
        "tier": "5",
        "lat": "27.703208596991583",
        "lng": "112.00150349288418"
    },
    "孝感": {
        "name": "孝感",
        "admaster": "孝感市",
        "name_en": "Xiaogan",
        "province": "湖北",
        "province_en": "Hubei",
        "tier": "3",
        "lat": "30.930689227018295",
        "lng": "113.92251007733665"
    },
    "宁德": {
        "name": "宁德",
        "admaster": "宁德市",
        "name_en": "Ningde",
        "province": "福建",
        "province_en": "Fujian",
        "tier": "3",
        "lat": "26.672241711408567",
        "lng": "119.55451074542829"
    },
    "宁波": {
        "name": "宁波",
        "admaster": "宁波市",
        "name_en": "Ningbo",
        "province": "浙江",
        "province_en": "Zhejiang",
        "tier": "new 1",
        "lat": "29.866033045866054",
        "lng": "121.62857249434141"
    },
    "安庆": {
        "name": "安庆",
        "admaster": "安庆市",
        "name_en": "Anqing",
        "province": "安徽",
        "province_en": "Anhui",
        "tier": "5",
        "lat": "30.53095656804304",
        "lng": "117.06360390491879"
    },
    "安康": {
        "name": "安康",
        "admaster": "安康市",
        "name_en": "Ankang",
        "province": "陕西",
        "province_en": "Shanxi",
        "tier": "5",
        "lat": "32.69051277057377",
        "lng": "109.03560108265746"
    },
    "安阳": {
        "name": "安阳",
        "admaster": "安阳市",
        "name_en": "Anyang",
        "province": "河南",
        "province_en": "Henan",
        "tier": "5",
        "lat": "36.10594098401491",
        "lng": "114.39950042177432"
    },
    "安顺": {
        "name": "安顺",
        "admaster": "安顺市",
        "name_en": "Anshun",
        "province": "贵州",
        "province_en": "Guizhou",
        "tier": "5",
        "lat": "26.25925237871499",
        "lng": "105.95441712388904"
    },
    "定西": {
        "name": "定西",
        "admaster": "定西市",
        "name_en": "Dingxi",
        "province": "甘肃",
        "province_en": "Gansu",
        "tier": "5",
        "lat": "35.586832926561875",
        "lng": "104.63242008306302"
    },
    "宜宾": {
        "name": "宜宾",
        "admaster": "宜宾市",
        "name_en": "Yibin",
        "province": "四川",
        "province_en": "Sichuan",
        "tier": "5",
        "lat": "28.75800702855183",
        "lng": "104.6494037048691"
    },
    "宜昌": {
        "name": "宜昌",
        "admaster": "宜昌市",
        "name_en": "Yichang",
        "province": "湖北",
        "province_en": "Hubei",
        "tier": "3",
        "lat": "30.697446484492378",
        "lng": "111.29254921035434"
    },
    "宜春": {
        "name": "宜春",
        "admaster": "宜春市",
        "name_en": "Yichun",
        "province": "江西",
        "province_en": "Jiangxi",
        "tier": "5",
        "lat": "27.820856421848216",
        "lng": "114.4235636759064"
    },
    "宝鸡": {
        "name": "宝鸡",
        "admaster": "宝鸡市",
        "name_en": "Baoji",
        "province": "陕西",
        "province_en": "Shanxi",
        "tier": "5",
        "lat": "34.36891564286998",
        "lng": "107.2445753670404"
    },
    "宣城": {
        "name": "宣城",
        "admaster": "宣城市",
        "name_en": "Xuancheng",
        "province": "安徽",
        "province_en": "Anhui",
        "tier": "5",
        "lat": "30.94660154529291",
        "lng": "118.76553424276743"
    },
    "宿州": {
        "name": "宿州",
        "admaster": "宿州市",
        "name_en": "Suzhou",
        "province": "安徽",
        "province_en": "Anhui",
        "tier": "5",
        "lat": "33.65209532645213",
        "lng": "116.97054394561262"
    },
    "宿迁": {
        "name": "宿迁",
        "admaster": "宿迁市",
        "name_en": "Suqian",
        "province": "江苏",
        "province_en": "Jiangsu",
        "tier": "5",
        "lat": "33.96774971569008",
        "lng": "118.28157403570837"
    },
    "山南": {
        "name": "山南",
        "admaster": "山南市",
        "name_en": "Shannan",
        "province": "西藏",
        "province_en": "Xizang",
        "tier": "5",
        "lat": "29.243026939249226",
        "lng": "91.77867513851903"
    },
    "岳阳": {
        "name": "岳阳",
        "admaster": "岳阳市",
        "name_en": "Yueyang",
        "province": "湖南",
        "province_en": "Hunan",
        "tier": "3",
        "lat": "29.3631782939259",
        "lng": "113.13548942422142"
    },
    "崇左": {
        "name": "崇左",
        "admaster": "崇左市",
        "name_en": "Chongzuo",
        "province": "广西",
        "province_en": "Guangxi",
        "tier": "5",
        "lat": "22.383117234663302",
        "lng": "107.3715202061015"
    },
    "巢湖": {
        "name": "巢湖",
        "admaster": "巢湖市",
        "name_en": "Chaohu",
        "province": "安徽",
        "province_en": "anhui",
        "tier": "5",
        "lat": "",
        "lng": ""
    },
    "巴中": {
        "name": "巴中",
        "admaster": "巴中市",
        "name_en": "Bazhong",
        "province": "四川",
        "province_en": "Sichuan",
        "tier": "5",
        "lat": "31.872888585956545",
        "lng": "106.7515853031645"
    },
    "巴彦淖尔": {
        "name": "巴彦淖尔",
        "admaster": "巴彦淖尔市",
        "name_en": "Bayannur",
        "province": "内蒙古",
        "province_en": "Neimenggu",
        "tier": "5",
        "lat": "40.7493594895728",
        "lng": "107.39439808372491"
    },
    "巴音郭楞": {
        "name": "巴音郭楞",
        "admaster": "巴音郭楞蒙古自治州",
        "name_en": "Bayinguoleng",
        "province": "新疆",
        "province_en": "Xinjiang",
        "tier": "5",
        "lat": "41.7702873304504",
        "lng": "86.1517138653326"
    },
    "常州": {
        "name": "常州",
        "admaster": "常州市",
        "name_en": "Changzhou",
        "province": "江苏",
        "province_en": "Jiangsu",
        "tier": "2",
        "lat": "31.815795653327836",
        "lng": "119.98148471327892"
    },
    "常德": {
        "name": "常德",
        "admaster": "常德市",
        "name_en": "Changde",
        "province": "湖南",
        "province_en": "Hunan",
        "tier": "5",
        "lat": "29.037749999406877",
        "lng": "111.70545217995837"
    },
    "平凉": {
        "name": "平凉",
        "admaster": "平凉市",
        "name_en": "Pingliang",
        "province": "甘肃",
        "province_en": "Gansu",
        "tier": "5",
        "lat": "35.549232050463516",
        "lng": "106.67144234827796"
    },
    "平顶山": {
        "name": "平顶山",
        "admaster": "平顶山市",
        "name_en": "Pingdingshan",
        "province": "河南",
        "province_en": "Henan",
        "tier": "5",
        "lat": "33.772050748691015",
        "lng": "113.19952856052156"
    },
    "广元": {
        "name": "广元",
        "admaster": "广元市",
        "name_en": "Guangyuan",
        "province": "四川",
        "province_en": "Sichuan",
        "tier": "5",
        "lat": "32.44161630531542",
        "lng": "105.85042318166482"
    },
    "广安": {
        "name": "广安",
        "admaster": "广安市",
        "name_en": "Guang'an",
        "province": "四川",
        "province_en": "Sichuan",
        "tier": "5",
        "lat": "30.461746110678995",
        "lng": "106.63955268233484"
    },
    "广州": {
        "name": "广州",
        "admaster": "广州市",
        "name_en": "Guangzhou",
        "province": "广东",
        "province_en": "Guangdong",
        "tier": "1",
        "lat": "23.135336306695006",
        "lng": "113.27143134445974"
    },
    "庆阳": {
        "name": "庆阳",
        "admaster": "庆阳市",
        "name_en": "Qingyang",
        "province": "甘肃",
        "province_en": "Gansu",
        "tier": "5",
        "lat": "35.71521598356201",
        "lng": "107.6493856959542"
    },
    "廊坊": {
        "name": "廊坊",
        "admaster": "廊坊市",
        "name_en": "Langfang",
        "province": "河北",
        "province_en": "Hebei",
        "tier": "3",
        "lat": "39.54336666275853",
        "lng": "116.69058173342549"
    },
    "延安": {
        "name": "延安",
        "admaster": "延安市",
        "name_en": "Yan'an",
        "province": "陕西",
        "province_en": "Shanxi",
        "tier": "5",
        "lat": "36.59111103521779",
        "lng": "109.49658191612687"
    },
    "延边": {
        "name": "延边",
        "admaster": "延边朝鲜族自治州",
        "name_en": "Yanbian",
        "province": "吉林",
        "province_en": "Jilin",
        "tier": "3",
        "lat": "42.91574303372181",
        "lng": "129.4773763202274"
    },
    "开封": {
        "name": "开封",
        "admaster": "开封市",
        "name_en": "Kaifeng",
        "province": "河南",
        "province_en": "Henan",
        "tier": "5",
        "lat": "34.80288581121172",
        "lng": "114.31459258497121"
    },
    "张家口": {
        "name": "张家口",
        "admaster": "张家口市",
        "name_en": "Zhangjiakou",
        "province": "河北",
        "province_en": "Hebei",
        "tier": "5",
        "lat": "40.7732372026915",
        "lng": "114.89257223145165"
    },
    "张家界": {
        "name": "张家界",
        "admaster": "张家界市",
        "name_en": "Zhangjiajie",
        "province": "湖南",
        "province_en": "Hunan",
        "tier": "5",
        "lat": "29.122815562551878",
        "lng": "110.48553254695402"
    },
    "张掖": {
        "name": "张掖",
        "admaster": "张掖市",
        "name_en": "Zhangye",
        "province": "甘肃",
        "province_en": "Gansu",
        "tier": "5",
        "lat": "38.932066007004934",
        "lng": "100.45641147405634"
    },
    "徐州": {
        "name": "徐州",
        "admaster": "徐州市",
        "name_en": "Xuzhou",
        "province": "江苏",
        "province_en": "Jiangsu",
        "tier": "2",
        "lat": "34.21266655011306",
        "lng": "117.29057543439453"
    },
    "德宏": {
        "name": "德宏",
        "admaster": "德宏傣族景颇族自治州",
        "name_en": "Dehong",
        "province": "云南",
        "province_en": "Yunnan",
        "tier": "5",
        "lat": "24.438010702758117",
        "lng": "98.59135935611411"
    },
    "德州": {
        "name": "德州",
        "admaster": "德州市",
        "name_en": "Dezhou",
        "province": "山东",
        "province_en": "Shandong",
        "tier": "5",
        "lat": "37.441308454576266",
        "lng": "116.36555674397471"
    },
    "德阳": {
        "name": "德阳",
        "admaster": "德阳市",
        "name_en": "Deyang",
        "province": "四川",
        "province_en": "Sichuan",
        "tier": "5",
        "lat": "31.133115003656755",
        "lng": "104.40441936496448"
    },
    "忻州": {
        "name": "忻州",
        "admaster": "忻州市",
        "name_en": "Xinzhou",
        "province": "山西",
        "province_en": "Shanxi",
        "tier": "5",
        "lat": "38.42238338517772",
        "lng": "112.74062416023847"
    },
    "怀化": {
        "name": "怀化",
        "admaster": "怀化市",
        "name_en": "Huaihua",
        "province": "湖南",
        "province_en": "Hunan",
        "tier": "5",
        "lat": "27.575160902978517",
        "lng": "110.00851426537254"
    },
    "怒江": {
        "name": "怒江",
        "admaster": "怒江傈僳族自治州",
        "name_en": "Nujiang",
        "province": "云南",
        "province_en": "Yunnan",
        "tier": "5",
        "lat": "25.823707417657754",
        "lng": "98.8632883813579"
    },
    "恩施": {
        "name": "恩施",
        "admaster": "恩施土家族苗族自治州",
        "name_en": "Enshi",
        "province": "湖北",
        "province_en": "Hubei",
        "tier": "5",
        "lat": "30.277939575301094",
        "lng": "109.49459261857503"
    },
    "惠州": {
        "name": "惠州",
        "admaster": "惠州市",
        "name_en": "Huizhou",
        "province": "广东",
        "province_en": "Guangdong",
        "tier": "2",
        "lat": "23.116358854725593",
        "lng": "114.4235580165817"
    },
    "成都": {
        "name": "成都",
        "admaster": "成都市",
        "name_en": "Chengdu",
        "province": "四川",
        "province_en": "Sichuan",
        "tier": "5",
        "lat": "30.655821878416408",
        "lng": "104.08153351042463"
    },
    "扬州": {
        "name": "扬州",
        "admaster": "扬州市",
        "name_en": "Yangzhou",
        "province": "江苏",
        "province_en": "Jiangsu",
        "tier": "3",
        "lat": "32.40067693609037",
        "lng": "119.41941890822997"
    },
    "承德": {
        "name": "承德",
        "admaster": "承德市",
        "name_en": "Chengde",
        "province": "河北",
        "province_en": "Hebei",
        "tier": "5",
        "lat": "40.95785601233803",
        "lng": "117.96939750996681"
    },
    "抚州": {
        "name": "抚州",
        "admaster": "抚州市",
        "name_en": "Fuzhou",
        "province": "江西",
        "province_en": "Jiangxi",
        "tier": "5",
        "lat": "27.954892253419565",
        "lng": "116.36453876864373"
    },
    "抚顺": {
        "name": "抚顺",
        "admaster": "抚顺市",
        "name_en": "Fushun",
        "province": "辽宁",
        "province_en": "Liaoning",
        "tier": "3",
        "lat": "41.88596959305694",
        "lng": "123.9643746156145"
    },
    "拉萨": {
        "name": "拉萨",
        "admaster": "拉萨市",
        "name_en": "Lhasa",
        "province": "西藏",
        "province_en": "Xizang",
        "tier": "5",
        "lat": "29.65004027476773",
        "lng": "91.12082391546393"
    },
    "揭阳": {
        "name": "揭阳",
        "admaster": "揭阳市",
        "name_en": "Jieyang",
        "province": "广东",
        "province_en": "Guangdong",
        "tier": "3",
        "lat": "23.555740488275585",
        "lng": "116.37851218033846"
    },
    "攀枝花": {
        "name": "攀枝花",
        "admaster": "攀枝花市",
        "name_en": "Panzhihua",
        "province": "四川",
        "province_en": "Sichuan",
        "tier": "5",
        "lat": "26.58803317333301",
        "lng": "101.72554117091441"
    },
    "文山": {
        "name": "文山",
        "admaster": "文山壮族苗族自治州",
        "name_en": "Wenshan",
        "province": "云南",
        "province_en": "Yunnan",
        "tier": "5",
        "lat": "23.40599429361173",
        "lng": "104.22256899109433"
    },
    "新乡": {
        "name": "新乡",
        "admaster": "新乡市",
        "name_en": "Xinxiang",
        "province": "河南",
        "province_en": "Henan",
        "tier": "5",
        "lat": "35.3096399303368",
        "lng": "113.93360046733228"
    },
    "新余": {
        "name": "新余",
        "admaster": "新余市",
        "name_en": "Xinyu",
        "province": "江西",
        "province_en": "Jiangxi",
        "tier": "5",
        "lat": "27.823578697788587",
        "lng": "114.9235346513963"
    },
    "无锡": {
        "name": "无锡",
        "admaster": "无锡市",
        "name_en": "Wuxi",
        "province": "江苏",
        "province_en": "Jiangsu",
        "tier": "2",
        "lat": "31.498809732685714",
        "lng": "120.31858328810601"
    },
    "日喀则": {
        "name": "日喀则",
        "admaster": "日喀则市",
        "name_en": "Shigatse",
        "province": "西藏",
        "province_en": "Xizang",
        "tier": "5",
        "lat": "29.275657822511512",
        "lng": "88.89370303482552"
    },
    "日照": {
        "name": "日照",
        "admaster": "日照市",
        "name_en": "Rizhao",
        "province": "山东",
        "province_en": "Shandong",
        "tier": "5",
        "lat": "35.42283899843767",
        "lng": "119.53341540456555"
    },
    "昆明": {
        "name": "昆明",
        "admaster": "昆明市",
        "name_en": "Kunming",
        "province": "云南",
        "province_en": "Yunnan",
        "tier": "2",
        "lat": "24.873998150044006",
        "lng": "102.85244836500482"
    },
    "昌吉": {
        "name": "昌吉",
        "admaster": "昌吉回族自治州",
        "name_en": "Changji",
        "province": "新疆",
        "province_en": "Xinjiang",
        "tier": "5",
        "lat": "44.01685415991987",
        "lng": "87.3150016244744"
    },
    "昌都": {
        "name": "昌都",
        "admaster": "昌都市",
        "name_en": "Chamdo",
        "province": "西藏",
        "province_en": "Xizang",
        "tier": "5",
        "lat": "31.14734654932703",
        "lng": "97.17958359408598"
    },
    "昭通": {
        "name": "昭通",
        "admaster": "昭通市",
        "name_en": "Zhaotong",
        "province": "云南",
        "province_en": "Yunnan",
        "tier": "5",
        "lat": "27.34408386024681",
        "lng": "103.72351177196889"
    },
    "晋中": {
        "name": "晋中",
        "admaster": "晋中市",
        "name_en": "Jinzhong",
        "province": "山西",
        "province_en": "Shanxi",
        "tier": "5",
        "lat": "37.69283940975972",
        "lng": "112.75959475565928"
    },
    "晋城": {
        "name": "晋城",
        "admaster": "晋城市",
        "name_en": "Jincheng",
        "province": "山西",
        "province_en": "Shanxi",
        "tier": "5",
        "lat": "35.49628458647257",
        "lng": "112.85857823132879"
    },
    "普洱": {
        "name": "普洱",
        "admaster": "普洱市",
        "name_en": "Pu'er",
        "province": "云南",
        "province_en": "Yunnan",
        "tier": "5",
        "lat": "22.830979186010275",
        "lng": "100.97256981472799"
    },
    "景德镇": {
        "name": "景德镇",
        "admaster": "景德镇市",
        "name_en": "Jingdezhen",
        "province": "江西",
        "province_en": "Jiangxi",
        "tier": "5",
        "lat": "29.274247711040953",
        "lng": "117.18457644638579"
    },
    "曲靖": {
        "name": "曲靖",
        "admaster": "曲靖市",
        "name_en": "Qujing",
        "province": "云南",
        "province_en": "Yunnan",
        "tier": "5",
        "lat": "25.496406931543667",
        "lng": "103.80243482794681"
    },
    "朔州": {
        "name": "朔州",
        "admaster": "朔州市",
        "name_en": "Shuozhou",
        "province": "山西",
        "province_en": "Shanxi",
        "tier": "5",
        "lat": "39.337108370541735",
        "lng": "112.4393709396677"
    },
    "朝阳": {
        "name": "朝阳",
        "admaster": "朝阳市",
        "name_en": "Chaoyang",
        "province": "辽宁",
        "province_en": "Liaoning",
        "tier": "5",
        "lat": "41.57982086475567",
        "lng": "120.45749949793277"
    },
    "本溪": {
        "name": "本溪",
        "admaster": "本溪市",
        "name_en": "Benxi",
        "province": "辽宁",
        "province_en": "Liaoning",
        "tier": "5",
        "lat": "41.49291646055291",
        "lng": "123.69250712420832"
    },
    "来宾": {
        "name": "来宾",
        "admaster": "来宾市",
        "name_en": "Laibin",
        "province": "广西",
        "province_en": "Guangxi",
        "tier": "5",
        "lat": "23.75654676260728",
        "lng": "109.22745819590091"
    },
    "杭州": {
        "name": "杭州",
        "admaster": "杭州市",
        "name_en": "Hangzhou",
        "province": "浙江",
        "province_en": "Zhejiang",
        "tier": "new 1",
        "lat": "30.25308298169347",
        "lng": "120.21551180372168"
    },
    "松原": {
        "name": "松原",
        "admaster": "松原市",
        "name_en": "Songyuan",
        "province": "吉林",
        "province_en": "Jilin",
        "tier": "5",
        "lat": "45.14740419341382",
        "lng": "124.83148187569292"
    },
    "林芝": {
        "name": "林芝",
        "admaster": "林芝市",
        "name_en": "Nyingchi",
        "province": "西藏",
        "province_en": "Xizang",
        "tier": "5",
        "lat": "29.654042176951524",
        "lng": "94.36805828713257"
    },
    "果洛": {
        "name": "果洛",
        "admaster": "果洛藏族自治州",
        "name_en": "Guoluo",
        "province": "青海",
        "province_en": "Qinghai",
        "tier": "5",
        "lat": "34.4771938664709",
        "lng": "100.25159197879555"
    },
    "枣庄": {
        "name": "枣庄",
        "admaster": "枣庄市",
        "name_en": "Zaozhuang",
        "province": "山东",
        "province_en": "Shandong",
        "tier": "5",
        "lat": "34.815994048435115",
        "lng": "117.33054194483897"
    },
    "柳州": {
        "name": "柳州",
        "admaster": "柳州市",
        "name_en": "Liuzhou",
        "province": "广西",
        "province_en": "Guangxi",
        "tier": "3",
        "lat": "24.331961386852413",
        "lng": "109.43442194634564"
    },
    "株洲": {
        "name": "株洲",
        "admaster": "株洲市",
        "name_en": "Zhuzhou",
        "province": "湖南",
        "province_en": "Hunan",
        "tier": "3",
        "lat": "27.833567639016444",
        "lng": "113.14047079776427"
    },
    "桂林": {
        "name": "桂林",
        "admaster": "桂林市",
        "name_en": "Guilin",
        "province": "广西",
        "province_en": "Guangxi",
        "tier": "3",
        "lat": "25.242885724872647",
        "lng": "110.20354537457943"
    },
    "梅州": {
        "name": "梅州",
        "admaster": "梅州市",
        "name_en": "Meizhou",
        "province": "广东",
        "province_en": "Guangdong",
        "tier": "5",
        "lat": "24.294177532206206",
        "lng": "116.12953737612247"
    },
    "梧州": {
        "name": "梧州",
        "admaster": "梧州市",
        "name_en": "Wuzhou",
        "province": "广西",
        "province_en": "Guangxi",
        "tier": "5",
        "lat": "23.48274528113516",
        "lng": "111.28551681182014"
    },
    "楚雄": {
        "name": "楚雄",
        "admaster": "楚雄彝族自治州",
        "name_en": "Chuxiong",
        "province": "云南",
        "province_en": "Yunnan",
        "tier": "5",
        "lat": "25.051773565340376",
        "lng": "101.53441248050268"
    },
    "榆林": {
        "name": "榆林",
        "admaster": "榆林市",
        "name_en": "Yulin",
        "province": "陕西",
        "province_en": "Shanxi",
        "tier": "5",
        "lat": "38.290883835484046",
        "lng": "109.74161603381395"
    },
    "武威": {
        "name": "武威",
        "admaster": "武威市",
        "name_en": "Wuwei",
        "province": "甘肃",
        "province_en": "Gansu",
        "tier": "5",
        "lat": "37.93437780815811",
        "lng": "102.64455434036918"
    },
    "武汉": {
        "name": "武汉",
        "admaster": "武汉市",
        "name_en": "Wuhan",
        "province": "湖北",
        "province_en": "Hubei",
        "tier": "new 1",
        "lat": "30.598466736400987",
        "lng": "114.31158155473231"
    },
    "毕节": {
        "name": "毕节",
        "admaster": "毕节市",
        "name_en": "Bijie",
        "province": "贵州",
        "province_en": "Guizhou",
        "tier": "5",
        "lat": "27.29021508342595",
        "lng": "105.2985887950112"
    },
    "永州": {
        "name": "永州",
        "admaster": "永州市",
        "name_en": "Yongzhou",
        "province": "湖南",
        "province_en": "Hunan",
        "tier": "5",
        "lat": "26.425864117900094",
        "lng": "111.61945505792227"
    },
    "汉中": {
        "name": "汉中",
        "admaster": "汉中市",
        "name_en": "Hanzhong",
        "province": "陕西",
        "province_en": "Shanxi",
        "tier": "5",
        "lat": "33.073799907833795",
        "lng": "107.02943020926463"
    },
    "汕头": {
        "name": "汕头",
        "admaster": "汕头市",
        "name_en": "Shantou",
        "province": "广东",
        "province_en": "Guangdong",
        "tier": "3",
        "lat": "23.35909171772515",
        "lng": "116.68852864054833"
    },
    "汕尾": {
        "name": "汕尾",
        "admaster": "汕尾市",
        "name_en": "Shanwei",
        "province": "广东",
        "province_en": "Guangdong",
        "tier": "5",
        "lat": "22.79126303654673",
        "lng": "115.38155260365083"
    },
    "江门": {
        "name": "江门",
        "admaster": "江门市",
        "name_en": "Jiangmen",
        "province": "广东",
        "province_en": "Guangdong",
        "tier": "3",
        "lat": "22.584603880965",
        "lng": "113.08855619524043"
    },
    "池州": {
        "name": "池州",
        "admaster": "池州市",
        "name_en": "Chizhou",
        "province": "安徽",
        "province_en": "Anhui",
        "tier": "5",
        "lat": "30.670883790764535",
        "lng": "117.49842096159624"
    },
    "沈阳": {
        "name": "沈阳",
        "admaster": "沈阳市",
        "name_en": "Shenyang",
        "province": "辽宁",
        "province_en": "Liaoning",
        "tier": "new 1",
        "lat": "41.68383006919066",
        "lng": "123.47109664482264"
    },
    "沧州": {
        "name": "沧州",
        "admaster": "沧州市",
        "name_en": "Cangzhou",
        "province": "河北",
        "province_en": "Hebei",
        "tier": "3",
        "lat": "38.310215141107044",
        "lng": "116.84558075595014"
    },
    "河池": {
        "name": "河池",
        "admaster": "河池市",
        "name_en": "Hechi",
        "province": "广西",
        "province_en": "Guangxi",
        "tier": "5",
        "lat": "24.698911731272894",
        "lng": "108.09149994498661"
    },
    "河源": {
        "name": "河源",
        "admaster": "河源市",
        "name_en": "Heyuan",
        "province": "广东",
        "province_en": "Guangdong",
        "tier": "5",
        "lat": "23.749684370959752",
        "lng": "114.70744627290641"
    },
    "泉州": {
        "name": "泉州",
        "admaster": "泉州市",
        "name_en": "Quanzhou",
        "province": "福建",
        "province_en": "Fujian",
        "tier": "2",
        "lat": "24.879952330498313",
        "lng": "118.68244626680422"
    },
    "泰安": {
        "name": "泰安",
        "admaster": "泰安市",
        "name_en": "Tai'an",
        "province": "山东",
        "province_en": "Shandong",
        "tier": "3",
        "lat": "36.2058580448846",
        "lng": "117.0944948347959"
    },
    "泰州": {
        "name": "泰州",
        "admaster": "泰州市",
        "name_en": "Taizhou",
        "province": "江苏",
        "province_en": "Jiangsu",
        "tier": "3",
        "lat": "32.4606750493083",
        "lng": "119.9295663378548"
    },
    "泸州": {
        "name": "泸州",
        "admaster": "泸州市",
        "name_en": "Luzhou",
        "province": "四川",
        "province_en": "Sichuan",
        "tier": "5",
        "lat": "28.87766830360723",
        "lng": "105.4485240693266"
    },
    "洛阳": {
        "name": "洛阳",
        "admaster": "洛阳市",
        "name_en": "Luoyang",
        "province": "河南",
        "province_en": "Henan",
        "tier": "3",
        "lat": "34.62426277921943",
        "lng": "112.4594212983115"
    },
    "济南": {
        "name": "济南",
        "admaster": "济南市",
        "name_en": "Jinan",
        "province": "山东",
        "province_en": "Shandong",
        "tier": "2",
        "lat": "36.65655420178723",
        "lng": "117.12639941261048"
    },
    "济宁": {
        "name": "济宁",
        "admaster": "济宁市",
        "name_en": "Jining",
        "province": "山东",
        "province_en": "Shandong",
        "tier": "3",
        "lat": "35.420177394529645",
        "lng": "116.59361234853988"
    },
    "海东": {
        "name": "海东",
        "admaster": "海东市",
        "name_en": "Haidong",
        "province": "青海",
        "province_en": "Qinghai",
        "tier": "5",
        "lat": "36.508511080941304",
        "lng": "102.1104440722824"
    },
    "海北": {
        "name": "海北",
        "admaster": "海北藏族自治州",
        "name_en": "Haibei",
        "province": "青海",
        "province_en": "Qinghai",
        "tier": "5",
        "lat": "36.96066282412982",
        "lng": "100.90743432145598"
    },
    "海南": {
        "name": "海南",
        "admaster": "海南藏族自治州",
        "name_en": "Hainan",
        "province": "青海",
        "province_en": "Qinghai",
        "tier": "5",
        "lat": "36.2921024798988",
        "lng": "100.62662114445924"
    },
    "海口": {
        "name": "海口",
        "admaster": "海口市",
        "name_en": "Haikou",
        "province": "海南",
        "province_en": "Hainan",
        "tier": "2",
        "lat": "20.04404943925674",
        "lng": "110.32552547126409"
    },
    "海西": {
        "name": "海西",
        "admaster": "海西蒙古族藏族自治州",
        "name_en": "Haixi",
        "province": "青海",
        "province_en": "Qinghai",
        "tier": "5",
        "lat": "37.38275046252745",
        "lng": "97.37629911601906"
    },
    "淄博": {
        "name": "淄博",
        "admaster": "淄博市",
        "name_en": "Zibo",
        "province": "山东",
        "province_en": "Shandong",
        "tier": "3",
        "lat": "36.81908568332188",
        "lng": "118.06145253489896"
    },
    "淮北": {
        "name": "淮北",
        "admaster": "淮北市",
        "name_en": "Huaibei",
        "province": "安徽",
        "province_en": "Anhui",
        "tier": "5",
        "lat": "33.96165630027632",
        "lng": "116.8045372670298"
    },
    "淮南": {
        "name": "淮南",
        "admaster": "淮南市",
        "name_en": "Huainan",
        "province": "安徽",
        "province_en": "Anhui",
        "tier": "5",
        "lat": "32.63184739905333",
        "lng": "117.00638885071616"
    },
    "淮安": {
        "name": "淮安",
        "admaster": "淮南市",
        "name_en": "Huainan",
        "province": "江苏",
        "province_en": "Jiangsu",
        "tier": "5",
        "lat": "32.63184739905333",
        "lng": "117.00638885071616"
    },
    "深圳": {
        "name": "深圳",
        "admaster": "深圳市",
        "name_en": "Shenzhen",
        "province": "广东",
        "province_en": "Guangdong",
        "tier": "1",
        "lat": "22.548456637984177",
        "lng": "114.06455183658751"
    },
    "清远": {
        "name": "清远",
        "admaster": "清远市",
        "name_en": "Qingyuan",
        "province": "广东",
        "province_en": "Guangdong",
        "tier": "3",
        "lat": "23.688230292088083",
        "lng": "113.06246832527266"
    },
    "温州": {
        "name": "温州",
        "admaster": "温州市",
        "name_en": "Wenzhou",
        "province": "浙江",
        "province_en": "Zhejiang",
        "tier": "2",
        "lat": "28.00108540447221",
        "lng": "120.70647689035565"
    },
    "渭南": {
        "name": "渭南",
        "admaster": "渭南市",
        "name_en": "Weinan",
        "province": "陕西",
        "province_en": "Shanxi",
        "tier": "5",
        "lat": "34.50571551675255",
        "lng": "109.51658960525897"
    },
    "湖州": {
        "name": "湖州",
        "admaster": "湖州市",
        "name_en": "Huzhou",
        "province": "浙江",
        "province_en": "Zhejiang",
        "tier": "3",
        "lat": "30.898963937294184",
        "lng": "120.09451660915789"
    },
    "湘潭": {
        "name": "湘潭",
        "admaster": "湘潭市",
        "name_en": "Xiangtan",
        "province": "湖南",
        "province_en": "Hunan",
        "tier": "5",
        "lat": "27.835702227135585",
        "lng": "112.95046418076468"
    },
    "湘西": {
        "name": "湘西",
        "admaster": "湘西土家族苗族自治州",
        "name_en": "Xiangxi",
        "province": "湖南",
        "province_en": "Hunan",
        "tier": "5",
        "lat": "28.317369104701186",
        "lng": "109.74557664946683"
    },
    "湛江": {
        "name": "湛江",
        "admaster": "湛江市",
        "name_en": "Zhanjiang",
        "province": "广东",
        "province_en": "Guangdong",
        "tier": "3",
        "lat": "21.276723439012073",
        "lng": "110.36555441392824"
    },
    "滁州": {
        "name": "滁州",
        "admaster": "滁州市",
        "name_en": "Chuzhou",
        "province": "安徽",
        "province_en": "Anhui",
        "tier": "5",
        "lat": "32.26127087204081",
        "lng": "118.33940613596579"
    },
    "滨州": {
        "name": "滨州",
        "admaster": "滨州市",
        "name_en": "Binzhou",
        "province": "山东",
        "province_en": "Shandong",
        "tier": "5",
        "lat": "37.3881961960769",
        "lng": "117.9774040171467"
    },
    "漯河": {
        "name": "漯河",
        "admaster": "漯河市",
        "name_en": "Luohe",
        "province": "河南",
        "province_en": "Henan",
        "tier": "5",
        "lat": "33.5877107071022",
        "lng": "114.02342077764726"
    },
    "漳州": {
        "name": "漳州",
        "admaster": "漳州市",
        "name_en": "Zhangzhou",
        "province": "福建",
        "province_en": "Fujian",
        "tier": "3",
        "lat": "24.51892979117087",
        "lng": "117.65357645298785"
    },
    "潍坊": {
        "name": "潍坊",
        "admaster": "潍坊市",
        "name_en": "Weifang",
        "province": "山东",
        "province_en": "Shandong",
        "tier": "5",
        "lat": "36.71265155126753",
        "lng": "119.16837791142822"
    },
    "潮州": {
        "name": "潮州",
        "admaster": "潮州市",
        "name_en": "Chaozhou",
        "province": "广东",
        "province_en": "Guangdong",
        "tier": "5",
        "lat": "23.662623192615886",
        "lng": "116.62947017362819"
    },
    "濮阳": {
        "name": "濮阳",
        "admaster": "濮阳市",
        "name_en": "Puyang",
        "province": "河南",
        "province_en": "Henan",
        "tier": "5",
        "lat": "35.76759302890629",
        "lng": "115.03559747034215"
    },
    "烟台": {
        "name": "烟台",
        "admaster": "烟台市",
        "name_en": "Yantai",
        "province": "山东",
        "province_en": "Shandong",
        "tier": "2",
        "lat": "37.470038383730525",
        "lng": "121.45441541730195"
    },
    "焦作": {
        "name": "焦作",
        "admaster": "焦作市",
        "name_en": "Jiaozuo",
        "province": "河南",
        "province_en": "Henan",
        "tier": "5",
        "lat": "35.22096325403899",
        "lng": "113.24854783457334"
    },
    "牡丹江": {
        "name": "牡丹江",
        "admaster": "牡丹江市",
        "name_en": "Mudanjiang",
        "province": "黑龙江",
        "province_en": "Heilongjiang",
        "tier": "5",
        "lat": "44.55624570898632",
        "lng": "129.6395397783469"
    },
    "玉林": {
        "name": "玉林",
        "admaster": "玉林市",
        "name_en": "Yulin",
        "province": "广西",
        "province_en": "Guangxi",
        "tier": "5",
        "lat": "22.659830509953142",
        "lng": "110.1884531233724"
    },
    "玉树": {
        "name": "玉树",
        "admaster": "玉树藏族自治州",
        "name_en": "Yushu",
        "province": "青海",
        "province_en": "Qinghai",
        "tier": "5",
        "lat": "33.01097958514274",
        "lng": "97.01318076277326"
    },
    "玉溪": {
        "name": "玉溪",
        "admaster": "玉溪市",
        "name_en": "Yuxi",
        "province": "云南",
        "province_en": "Yunnan",
        "tier": "5",
        "lat": "24.35771094244625",
        "lng": "102.55356029311"
    },
    "珠海": {
        "name": "珠海",
        "admaster": "珠海市",
        "name_en": "Zhuhai",
        "province": "广东",
        "province_en": "Guangdong",
        "tier": "2",
        "lat": "22.27656465424921",
        "lng": "113.58255478654918"
    },
    "甘南": {
        "name": "甘南",
        "admaster": "甘南藏族自治州",
        "name_en": "Gannan",
        "province": "甘肃",
        "province_en": "Gansu",
        "tier": "5",
        "lat": "34.98913990996821",
        "lng": "102.91758468825803"
    },
    "甘孜": {
        "name": "甘孜",
        "admaster": "甘孜藏族自治州",
        "name_en": "Ganzi",
        "province": "四川",
        "province_en": "Sichuan",
        "tier": "5",
        "lat": "30.05527884351838",
        "lng": "101.96854674579022"
    },
    "白城": {
        "name": "白城",
        "admaster": "白城市",
        "name_en": "Baicheng",
        "province": "吉林",
        "province_en": "Jilin",
        "tier": "5",
        "lat": "45.62550435999602",
        "lng": "122.8455906084976"
    },
    "白山": {
        "name": "白山",
        "admaster": "白山市",
        "name_en": "Baishan",
        "province": "吉林",
        "province_en": "Jilin",
        "tier": "5",
        "lat": "41.93962720532889",
        "lng": "126.42963008937573"
    },
    "白银": {
        "name": "白银",
        "admaster": "白银市",
        "name_en": "Baiyin",
        "province": "甘肃",
        "province_en": "Gansu",
        "tier": "5",
        "lat": "36.55082533041454",
        "lng": "104.1444508283435"
    },
    "百色": {
        "name": "百色",
        "admaster": "百色市",
        "name_en": "Baise",
        "province": "广西",
        "province_en": "Guangxi",
        "tier": "5",
        "lat": "23.908185934295958",
        "lng": "106.62458932565383"
    },
    "益阳": {
        "name": "益阳",
        "admaster": "益阳市",
        "name_en": "Yiyang",
        "province": "湖南",
        "province_en": "Hunan",
        "tier": "5",
        "lat": "28.559711178489888",
        "lng": "112.36151595471031"
    },
    "盐城": {
        "name": "盐城",
        "admaster": "盐城市",
        "name_en": "Yancheng",
        "province": "江苏",
        "province_en": "Jiangsu",
        "tier": "3",
        "lat": "33.355100917626196",
        "lng": "120.167544265761"
    },
    "盘锦": {
        "name": "盘锦",
        "admaster": "盘锦市",
        "name_en": "Panjin",
        "province": "辽宁",
        "province_en": "Liaoning",
        "tier": "3",
        "lat": "41.12587528873715",
        "lng": "122.07749009021381"
    },
    "眉山": {
        "name": "眉山",
        "admaster": "眉山市",
        "name_en": "Meishan",
        "province": "四川",
        "province_en": "Sichuan",
        "tier": "3",
        "lat": "30.082526119421058",
        "lng": "103.85656331579456"
    },
    "石嘴山": {
        "name": "石嘴山",
        "admaster": "石嘴山市",
        "name_en": "Shizuishan",
        "province": "宁夏",
        "province_en": "Ningxia",
        "tier": "5",
        "lat": "38.98968283991508",
        "lng": "106.3906004255049"
    },
    "石家庄": {
        "name": "石家庄",
        "admaster": "石家庄市",
        "name_en": "Shijiazhuang",
        "province": "河北",
        "province_en": "Hebei",
        "tier": "2",
        "lat": "38.052097109846855",
        "lng": "114.46902163264978"
    },
    "福州": {
        "name": "福州",
        "admaster": "福州市",
        "name_en": "Fuzhou",
        "province": "福建",
        "province_en": "Fujian",
        "tier": "2",
        "lat": "26.080429420698078",
        "lng": "119.30346983854001"
    },
    "秦皇岛": {
        "name": "秦皇岛",
        "admaster": "秦皇岛市",
        "name_en": "Qinhuangdao",
        "province": "河北",
        "province_en": "Hebei",
        "tier": "3",
        "lat": "39.941748102377936",
        "lng": "119.60853063334328"
    },
    "红河": {
        "name": "红河",
        "admaster": "红河哈尼族彝族自治州",
        "name_en": "Honghe",
        "province": "云南",
        "province_en": "Yunnan",
        "tier": "5",
        "lat": "23.37448873836479",
        "lng": "102.42755057757"
    },
    "绍兴": {
        "name": "绍兴",
        "admaster": "绍兴市",
        "name_en": "Shaoxing",
        "province": "浙江",
        "province_en": "Zhejiang",
        "tier": "2",
        "lat": "30.0363693113069",
        "lng": "120.58547847885335"
    },
    "绥化": {
        "name": "绥化",
        "admaster": "绥化市",
        "name_en": "Suihua",
        "province": "黑龙江",
        "province_en": "Heilongjiang",
        "tier": "5",
        "lat": "46.6600321798244",
        "lng": "126.97535687530133"
    },
    "绵阳": {
        "name": "绵阳",
        "admaster": "绵阳市",
        "name_en": "Mianyang",
        "province": "四川",
        "province_en": "Sichuan",
        "tier": "3",
        "lat": "31.473663048745863",
        "lng": "104.6855618607612"
    },
    "聊城": {
        "name": "聊城",
        "admaster": "聊城市",
        "name_en": "Liaocheng",
        "province": "山东",
        "province_en": "Shandong",
        "tier": "5",
        "lat": "36.46275818769411",
        "lng": "115.99158784830443"
    },
    "肇庆": {
        "name": "肇庆",
        "admaster": "肇庆市",
        "name_en": "Zhaoqing",
        "province": "广东",
        "province_en": "Guangdong",
        "tier": "3",
        "lat": "23.052888771125616",
        "lng": "112.47148894063035"
    },
    "自贡": {
        "name": "自贡",
        "admaster": "自贡市",
        "name_en": "Zigong",
        "province": "四川",
        "province_en": "Sichuan",
        "tier": "5",
        "lat": "29.345584921327575",
        "lng": "104.78444884671711"
    },
    "舟山": {
        "name": "舟山",
        "admaster": "舟山市",
        "name_en": "Zhoushan",
        "province": "浙江",
        "province_en": "Zhejiang",
        "tier": "3",
        "lat": "29.99091168016034",
        "lng": "122.21355631852045"
    },
    "芜湖": {
        "name": "芜湖",
        "admaster": "芜湖市",
        "name_en": "Wuhu",
        "province": "安徽",
        "province_en": "Anhui",
        "tier": "3",
        "lat": "31.358536655799266",
        "lng": "118.43943137653523"
    },
    "苏州": {
        "name": "苏州",
        "admaster": "苏州市",
        "name_en": "Suzhou",
        "province": "江苏",
        "province_en": "Jiangsu",
        "tier": "new 1",
        "lat": "31.303564074441766",
        "lng": "120.59241222959322"
    },
    "茂名": {
        "name": "茂名",
        "admaster": "茂名市",
        "name_en": "Maoming",
        "province": "广东",
        "province_en": "Guangdong",
        "tier": "5",
        "lat": "21.669064031332095",
        "lng": "110.931542579969"
    },
    "荆州": {
        "name": "荆州",
        "admaster": "荆州市",
        "name_en": "Jingzhou",
        "province": "湖北",
        "province_en": "Hubei",
        "tier": "3",
        "lat": "30.340842107742912",
        "lng": "112.24552262926137"
    },
    "荆门": {
        "name": "荆门",
        "admaster": "荆门市",
        "name_en": "Jingmen",
        "province": "湖北",
        "province_en": "Hubei",
        "tier": "5",
        "lat": "31.041732575569622",
        "lng": "112.20639298023002"
    },
    "莆田": {
        "name": "莆田",
        "admaster": "莆田市",
        "name_en": "Putian",
        "province": "福建",
        "province_en": "Fujian",
        "tier": "3",
        "lat": "25.45986545592271",
        "lng": "119.0145209781265"
    },
    "莱芜": {
        "name": "莱芜",
        "admaster": "莱芜市",
        "name_en": "Laiwu",
        "province": "山东",
        "province_en": "Shandong",
        "tier": "5",
        "lat": "",
        "lng": ""
    },
    "菏泽": {
        "name": "菏泽",
        "admaster": "菏泽市",
        "name_en": "Heze",
        "province": "山东",
        "province_en": "Shandong",
        "tier": "5",
        "lat": "35.23940742476551",
        "lng": "115.48754503343376"
    },
    "萍乡": {
        "name": "萍乡",
        "admaster": "萍乡市",
        "name_en": "Pingxiang",
        "province": "江西",
        "province_en": "Jiangxi",
        "tier": "5",
        "lat": "27.6283927093972",
        "lng": "113.8614964337543"
    },
    "营口": {
        "name": "营口",
        "admaster": "营口市",
        "name_en": "Yingkou",
        "province": "辽宁",
        "province_en": "Liaoning",
        "tier": "3",
        "lat": "40.67313683826707",
        "lng": "122.24157466449694"
    },
    "葫芦岛": {
        "name": "葫芦岛",
        "admaster": "葫芦岛市",
        "name_en": "Huludao",
        "province": "辽宁",
        "province_en": "Liaoning",
        "tier": "5",
        "lat": "40.71736443636189",
        "lng": "120.8433983399283"
    },
    "蚌埠": {
        "name": "蚌埠",
        "admaster": "蚌埠市",
        "name_en": "Bengbu",
        "province": "安徽",
        "province_en": "Anhui",
        "tier": "3",
        "lat": "32.921523704350825",
        "lng": "117.39551332813694"
    },
    "衡水": {
        "name": "衡水",
        "admaster": "衡水市",
        "name_en": "Hengshui",
        "province": "河北",
        "province_en": "Hebei",
        "tier": "5",
        "lat": "37.745191408077424",
        "lng": "115.6754061376161"
    },
    "衡阳": {
        "name": "衡阳",
        "admaster": "衡阳市",
        "name_en": "Hengyang",
        "province": "湖南",
        "province_en": "Hunan",
        "tier": "3",
        "lat": "26.899576139189122",
        "lng": "112.57844721325992"
    },
    "衢州": {
        "name": "衢州",
        "admaster": "衢州市",
        "name_en": "Quzhou",
        "province": "浙江",
        "province_en": "Zhejiang",
        "tier": "3",
        "lat": "28.975545802265025",
        "lng": "118.86659674035565"
    },
    "襄樊": {
        "name": "襄樊",
        "admaster": "襄樊市",
        "name_en": "Xiangfan",
        "province": "湖北",
        "province_en": "hubei",
        "tier": "5",
        "lat": "",
        "lng": ""
    },
    "西双版纳": {
        "name": "西双版纳",
        "admaster": "西双版纳傣族自治州",
        "name_en": "Xishuangbanna",
        "province": "云南",
        "province_en": "Yunnan",
        "tier": "5",
        "lat": "22.013601254764165",
        "lng": "100.80344682455637"
    },
    "西宁": {
        "name": "西宁",
        "admaster": "西宁市",
        "name_en": "Xining",
        "province": "青海",
        "province_en": "Qinghai",
        "tier": "3",
        "lat": "36.62338469651661",
        "lng": "101.78445017050855"
    },
    "西安": {
        "name": "西安",
        "admaster": "西安市",
        "name_en": "Xi'an",
        "province": "陕西",
        "province_en": "Shanxi",
        "tier": "new 1",
        "lat": "34.34726881662395",
        "lng": "108.94646555063274"
    },
    "许昌": {
        "name": "许昌",
        "admaster": "许昌市",
        "name_en": "Xuchang",
        "province": "河南",
        "province_en": "Henan",
        "tier": "5",
        "lat": "34.04143161161871",
        "lng": "113.85847553685502"
    },
    "贵港": {
        "name": "贵港",
        "admaster": "贵港市",
        "name_en": "Guigang",
        "province": "广西",
        "province_en": "Guangxi",
        "tier": "5",
        "lat": "23.117448382037534",
        "lng": "109.60552031033306"
    },
    "贵阳": {
        "name": "贵阳",
        "admaster": "贵阳市",
        "name_en": "Guiyang",
        "province": "贵州",
        "province_en": "Guizhou",
        "tier": "2",
        "lat": "26.653324822309752",
        "lng": "106.63657676352776"
    },
    "贺州": {
        "name": "贺州",
        "admaster": "贺州市",
        "name_en": "Hezhou",
        "province": "广西",
        "province_en": "Guangxi",
        "tier": "5",
        "lat": "24.409450902865487",
        "lng": "111.57352631416218"
    },
    "资阳": {
        "name": "资阳",
        "admaster": "资阳市",
        "name_en": "Ziyang",
        "province": "四川",
        "province_en": "Sichuan",
        "tier": "5",
        "lat": "30.13495655925314",
        "lng": "104.6344353416441"
    },
    "赣州": {
        "name": "赣州",
        "admaster": "赣州市",
        "name_en": "Ganzhou",
        "province": "江西",
        "province_en": "Jiangxi",
        "tier": "3",
        "lat": "25.835176103497655",
        "lng": "114.9405033729825"
    },
    "赤峰": {
        "name": "赤峰",
        "admaster": "赤峰市",
        "name_en": "Chifeng",
        "province": "内蒙古",
        "province_en": "Neimenggu",
        "tier": "5",
        "lat": "42.2616861034116",
        "lng": "118.8955203975195"
    },
    "辽源": {
        "name": "辽源",
        "admaster": "辽源市",
        "name_en": "Liaoyuan",
        "province": "吉林",
        "province_en": "Jilin",
        "tier": "5",
        "lat": "42.89405500574631",
        "lng": "125.15042516688747"
    },
    "辽阳": {
        "name": "辽阳",
        "admaster": "辽阳市",
        "name_en": "Liaoyang",
        "province": "辽宁",
        "province_en": "Liaoning",
        "tier": "5",
        "lat": "41.27416129045421",
        "lng": "123.24336640651318"
    },
    "达州": {
        "name": "达州",
        "admaster": "达州市",
        "name_en": "Dazhou",
        "province": "四川",
        "province_en": "Sichuan",
        "tier": "5",
        "lat": "31.214307723927455",
        "lng": "107.47459385897544"
    },
    "运城": {
        "name": "运城",
        "admaster": "运城市",
        "name_en": "Yuncheng",
        "province": "山西",
        "province_en": "Shanxi",
        "tier": "5",
        "lat": "35.03270691290923",
        "lng": "111.01338945447925"
    },
    "连云港": {
        "name": "连云港",
        "admaster": "连云港市",
        "name_en": "Lianyungang",
        "province": "江苏",
        "province_en": "Jiangsu",
        "tier": "3",
        "lat": "34.60224952526725",
        "lng": "119.22862133316607"
    },
    "迪庆": {
        "name": "迪庆",
        "admaster": "迪庆藏族自治州",
        "name_en": "Diqing",
        "province": "云南",
        "province_en": "Yunnan",
        "tier": "5",
        "lat": "27.82518468364326",
        "lng": "99.70952999013957"
    },
    "通化": {
        "name": "通化",
        "admaster": "通化市",
        "name_en": "Tonghua",
        "province": "吉林",
        "province_en": "Jilin",
        "tier": "5",
        "lat": "41.733815801613424",
        "lng": "125.94660627598029"
    },
    "通辽": {
        "name": "通辽",
        "admaster": "通辽市",
        "name_en": "Tongliao",
        "province": "内蒙古",
        "province_en": "Neimenggu",
        "tier": "5",
        "lat": "43.657980083916655",
        "lng": "122.25052178737633"
    },
    "遂宁": {
        "name": "遂宁",
        "admaster": "遂宁市",
        "name_en": "Suining",
        "province": "四川",
        "province_en": "Sichuan",
        "tier": "5",
        "lat": "30.53909767110912",
        "lng": "105.5994215306444"
    },
    "遵义": {
        "name": "遵义",
        "admaster": "遵义市",
        "name_en": "Zunyi",
        "province": "贵州",
        "province_en": "Guizhou",
        "tier": "5",
        "lat": "27.731700878916666",
        "lng": "106.93342774801829"
    },
    "邢台": {
        "name": "邢台",
        "admaster": "邢台市",
        "name_en": "Xingtai",
        "province": "河北",
        "province_en": "Hebei",
        "tier": "5",
        "lat": "37.07716685005908",
        "lng": "115.0316624430557"
    },
    "那曲": {
        "name": "那曲",
        "admaster": "那曲地区",
        "name_en": "Naqu",
        "province": "西藏",
        "province_en": "Xizang",
        "tier": "5",
        "lat": "",
        "lng": ""
    },
    "邯郸": {
        "name": "邯郸",
        "admaster": "邯郸市",
        "name_en": "Handan",
        "province": "河北",
        "province_en": "Hebei",
        "tier": "3",
        "lat": "36.631262731204046",
        "lng": "114.5456282282352"
    },
    "邵阳": {
        "name": "邵阳",
        "admaster": "邵阳市",
        "name_en": "Shaoyang",
        "province": "湖南",
        "province_en": "Hunan",
        "tier": "5",
        "lat": "27.245270272808565",
        "lng": "111.474432885931"
    },
    "郑州": {
        "name": "郑州",
        "admaster": "郑州市",
        "name_en": "Zhengzhou",
        "province": "河南",
        "province_en": "Henan",
        "tier": "new 1",
        "lat": "34.75343885045448",
        "lng": "113.63141920733915"
    },
    "郴州": {
        "name": "郴州",
        "admaster": "郴州市",
        "name_en": "Chenzhou",
        "province": "湖南",
        "province_en": "Hunan",
        "tier": "5",
        "lat": "25.776683273601865",
        "lng": "113.02146049909462"
    },
    "鄂尔多斯": {
        "name": "鄂尔多斯",
        "admaster": "鄂尔多斯市",
        "name_en": "Ordos",
        "province": "内蒙古",
        "province_en": "Neimenggu",
        "tier": "5",
        "lat": "39.61448231394889",
        "lng": "109.78744317923602"
    },
    "鄂州": {
        "name": "鄂州",
        "admaster": "鄂州市",
        "name_en": "Ezhou",
        "province": "湖北",
        "province_en": "Hubei",
        "tier": "5",
        "lat": "30.39657217331699",
        "lng": "114.90160738827099"
    },
    "酒泉": {
        "name": "酒泉",
        "admaster": "酒泉市",
        "name_en": "Jiuquan",
        "province": "甘肃",
        "province_en": "Gansu",
        "tier": "5",
        "lat": "39.73846908071564",
        "lng": "98.50068521606795"
    },
    "重庆": {
        "name": "重庆",
        "admaster": "重庆市",
        "name_en": "Chongqing",
        "province": "重庆",
        "province_en": "Chongqing",
        "tier": "new 1",
        "lat": "29.568996245338923",
        "lng": "106.55843415537664"
    },
    "金华": {
        "name": "金华",
        "admaster": "金华市",
        "name_en": "Jinhua",
        "province": "浙江",
        "province_en": "Zhejiang",
        "tier": "2",
        "lat": "29.084639385513697",
        "lng": "119.65343619052916"
    },
    "金昌": {
        "name": "金昌",
        "admaster": "金昌市",
        "name_en": "Jinchang",
        "province": "甘肃",
        "province_en": "Gansu",
        "tier": "5",
        "lat": "38.52582009209263",
        "lng": "102.19460568669837"
    },
    "钦州": {
        "name": "钦州",
        "admaster": "钦州市",
        "name_en": "Qinzhou",
        "province": "广西",
        "province_en": "Guangxi",
        "tier": "5",
        "lat": "21.986593539484296",
        "lng": "108.66058016842224"
    },
    "铁岭": {
        "name": "铁岭",
        "admaster": "铁岭市",
        "name_en": "Tieling",
        "province": "辽宁",
        "province_en": "Liaoning",
        "tier": "5",
        "lat": "42.22994799718447",
        "lng": "123.73236520917769"
    },
    "铜仁": {
        "name": "铜仁",
        "admaster": "铜仁市",
        "name_en": "Tongren",
        "province": "贵州",
        "province_en": "Guizhou",
        "tier": "5",
        "lat": "27.73778645640524",
        "lng": "109.19643889817665"
    },
    "铜川": {
        "name": "铜川",
        "admaster": "铜川市",
        "name_en": "Tongchuan",
        "province": "陕西",
        "province_en": "Shanxi",
        "tier": "5",
        "lat": "34.902637080502906",
        "lng": "108.95240424835922"
    },
    "铜陵": {
        "name": "铜陵",
        "admaster": "铜陵市",
        "name_en": "Tongling",
        "province": "安徽",
        "province_en": "Anhui",
        "tier": "5",
        "lat": "30.95123323991339",
        "lng": "117.81847679445747"
    },
    "银川": {
        "name": "银川",
        "admaster": "银川市",
        "name_en": "Yinchuan",
        "province": "宁夏",
        "province_en": "Ningxia",
        "tier": "3",
        "lat": "38.492460055509596",
        "lng": "106.23849358740017"
    },
    "锡林郭勒": {
        "name": "锡林郭勒",
        "admaster": "锡林郭勒盟",
        "name_en": "Linguolexi",
        "province": "内蒙古",
        "province_en": "Neimenggu",
        "tier": "5",
        "lat": "43.93942266533856",
        "lng": "116.05439144074573"
    },
    "锦州": {
        "name": "锦州",
        "admaster": "锦州市",
        "name_en": "Jinzhou",
        "province": "辽宁",
        "province_en": "Liaoning",
        "tier": "5",
        "lat": "41.10093149946208",
        "lng": "121.13259630055518"
    },
    "镇江": {
        "name": "镇江",
        "admaster": "镇江市",
        "name_en": "Zhenjiang",
        "province": "江苏",
        "province_en": "Jiangsu",
        "tier": "3",
        "lat": "32.19471592052375",
        "lng": "119.43048944567383"
    },
    "长春": {
        "name": "长春",
        "admaster": "长春市",
        "name_en": "Changchun",
        "province": "吉林",
        "province_en": "Jilin",
        "tier": "2",
        "lat": "43.82195350104314",
        "lng": "125.3306020759069"
    },
    "长沙": {
        "name": "长沙",
        "admaster": "长沙市",
        "name_en": "Changsha",
        "province": "湖南",
        "province_en": "Hunan",
        "tier": "new 1",
        "lat": "28.23488939994364",
        "lng": "112.94547319535287"
    },
    "长治": {
        "name": "长治",
        "admaster": "长治市",
        "name_en": "Changzhi",
        "province": "山西",
        "province_en": "Shanxi",
        "tier": "5",
        "lat": "36.2012683721548",
        "lng": "113.12255886984902"
    },
    "阜新": {
        "name": "阜新",
        "admaster": "阜新市",
        "name_en": "Fuxin",
        "province": "辽宁",
        "province_en": "Liaoning",
        "tier": "5",
        "lat": "42.02802190131842",
        "lng": "121.67640799865809"
    },
    "阜阳": {
        "name": "阜阳",
        "admaster": "阜阳市",
        "name_en": "Fuyang",
        "province": "安徽",
        "province_en": "Anhui",
        "tier": "5",
        "lat": "32.89606099485221",
        "lng": "115.82043612491321"
    },
    "防城港": {
        "name": "防城港",
        "admaster": "防城港市",
        "name_en": "Fangchenggang",
        "province": "广西",
        "province_en": "Guangxi",
        "tier": "5",
        "lat": "21.6930052899694",
        "lng": "108.360418838298"
    },
    "阳江": {
        "name": "阳江",
        "admaster": "阳江市",
        "name_en": "Yangjiang",
        "province": "广东",
        "province_en": "Guangdong",
        "tier": "5",
        "lat": "21.864339726138933",
        "lng": "111.98848929181268"
    },
    "阳泉": {
        "name": "阳泉",
        "admaster": "阳泉市",
        "name_en": "Yangquan",
        "province": "山西",
        "province_en": "Shanxi",
        "tier": "5",
        "lat": "37.862360847859385",
        "lng": "113.58761666287546"
    },
    "阿克苏": {
        "name": "阿克苏",
        "admaster": "阿克苏地区",
        "name_en": "Akesu",
        "province": "新疆",
        "province_en": "Xinjiang",
        "tier": "5",
        "lat": "41.17502986007749",
        "lng": "80.26694348473501"
    },
    "阿勒泰": {
        "name": "阿勒泰",
        "admaster": "阿勒泰地区",
        "name_en": "Aletai",
        "province": "新疆",
        "province_en": "Xinjiang",
        "tier": "5",
        "lat": "47.85072787010195",
        "lng": "88.14792620373527"
    },
    "阿坝": {
        "name": "阿坝",
        "admaster": "阿坝藏族羌族自治州",
        "name_en": "Aba",
        "province": "四川",
        "province_en": "Sichuan",
        "tier": "5",
        "lat": "32.9082209186247",
        "lng": "101.71360970816114"
    },
    "阿拉善盟": {
        "name": "阿拉善盟",
        "admaster": "阿拉善盟",
        "name_en": "Alashanmeng",
        "province": "内蒙古",
        "province_en": "Neimenggu",
        "tier": "5",
        "lat": "38.858275883056955",
        "lng": "105.73537746449358"
    },
    "阿里": {
        "name": "阿里",
        "admaster": "阿里地区",
        "name_en": "Ali",
        "province": "西藏",
        "province_en": "Xizang",
        "tier": "5",
        "lat": "32.50686601763335",
        "lng": "80.11277692192645"
    },
    "陇南": {
        "name": "陇南",
        "admaster": "陇南市",
        "name_en": "Longnan",
        "province": "甘肃",
        "province_en": "Gansu",
        "tier": "5",
        "lat": "33.40662022995126",
        "lng": "104.92857497071192"
    },
    "随州": {
        "name": "随州",
        "admaster": "随州市",
        "name_en": "Suizhou",
        "province": "湖北",
        "province_en": "Hubei",
        "tier": "5",
        "lat": "31.6965167723283",
        "lng": "113.38945001822157"
    },
    "雅安": {
        "name": "雅安",
        "admaster": "雅安市",
        "name_en": "Ya'an",
        "province": "四川",
        "province_en": "Sichuan",
        "tier": "5",
        "lat": "30.01679254570607",
        "lng": "103.04954262360451"
    },
    "青岛": {
        "name": "青岛",
        "admaster": "青岛市",
        "name_en": "Qingdao",
        "province": "山东",
        "province_en": "Shandong",
        "tier": "new 1",
        "lat": "36.072227496663224",
        "lng": "120.38945519114627"
    },
    "鞍山": {
        "name": "鞍山",
        "admaster": "鞍山市",
        "name_en": "Anshan",
        "province": "辽宁",
        "province_en": "Liaoning",
        "tier": "3",
        "lat": "41.11505359694933",
        "lng": "123.00137251399407"
    },
    "韶关": {
        "name": "韶关",
        "admaster": "韶关市",
        "name_en": "Shaoguan",
        "province": "广东",
        "province_en": "Guangdong",
        "tier": "5",
        "lat": "24.815881278583017",
        "lng": "113.60352734562261"
    },
    "马鞍山": {
        "name": "马鞍山",
        "admaster": "马鞍山市",
        "name_en": "Ma'anshan",
        "province": "安徽",
        "province_en": "Anhui",
        "tier": "3",
        "lat": "31.676265597609103",
        "lng": "118.5135795794315"
    },
    "驻马店": {
        "name": "驻马店",
        "admaster": "驻马店市",
        "name_en": "Zhumadian",
        "province": "河南",
        "province_en": "Henan",
        "tier": "5",
        "lat": "33.01784241674367",
        "lng": "114.02847078173271"
    },
    "鸡西": {
        "name": "鸡西",
        "admaster": "鸡西市",
        "name_en": "Jixi",
        "province": "黑龙江",
        "province_en": "Heilongjiang",
        "tier": "5",
        "lat": "45.300872317823895",
        "lng": "130.97561865876668"
    },
    "鹤壁": {
        "name": "鹤壁",
        "admaster": "鹤壁市",
        "name_en": "Hebi",
        "province": "河南",
        "province_en": "Henan",
        "tier": "5",
        "lat": "35.7523574114",
        "lng": "114.30359364247649"
    },
    "鹤岗": {
        "name": "鹤岗",
        "admaster": "鹤岗市",
        "name_en": "Hegang",
        "province": "黑龙江",
        "province_en": "Heilongjiang",
        "tier": "5",
        "lat": "47.35605615768509",
        "lng": "130.3044328986694"
    },
    "鹰潭": {
        "name": "鹰潭",
        "admaster": "鹰潭市",
        "name_en": "Yingtan",
        "province": "江西",
        "province_en": "Jiangxi",
        "tier": "5",
        "lat": "28.265787063191418",
        "lng": "117.0755754270272"
    },
    "黄冈": {
        "name": "黄冈",
        "admaster": "黄冈市",
        "name_en": "Huanggang",
        "province": "湖北",
        "province_en": "Hubei",
        "tier": "5",
        "lat": "30.4593588576181",
        "lng": "114.87849048410779"
    },
    "黄南": {
        "name": "黄南",
        "admaster": "黄南藏族自治州",
        "name_en": "Huangnan",
        "province": "青海",
        "province_en": "Qinghai",
        "tier": "5",
        "lat": "35.525804586515534",
        "lng": "102.02242827807585"
    },
    "黄山": {
        "name": "黄山",
        "admaster": "黄山市",
        "name_en": "Huangshan",
        "province": "安徽",
        "province_en": "Anhui",
        "tier": "5",
        "lat": "29.721889786591692",
        "lng": "118.34543725314781"
    },
    "黄石": {
        "name": "黄石",
        "admaster": "黄石市",
        "name_en": "Huangshi",
        "province": "湖北",
        "province_en": "Hubei",
        "tier": "5",
        "lat": "30.205207848941598",
        "lng": "115.04553290894361"
    },
    "黑河": {
        "name": "黑河",
        "admaster": "黑河市",
        "name_en": "Heihe",
        "province": "黑龙江",
        "province_en": "Heilongjiang",
        "tier": "5",
        "lat": "50.25127231175015",
        "lng": "127.53548988621854"
    },
    "黔东南": {
        "name": "黔东南",
        "admaster": "黔东南苗族侗族自治州",
        "name_en": "Qiandongnan",
        "province": "贵州",
        "province_en": "Guizhou",
        "tier": "5",
        "lat": "26.58970296982603",
        "lng": "107.9894462407788"
    },
    "黔南": {
        "name": "黔南",
        "admaster": "黔南布依族苗族自治州",
        "name_en": "Qiannan",
        "province": "贵州",
        "province_en": "guizhou",
        "tier": "5",
        "lat": "26.260616196073833",
        "lng": "107.5284027057371"
    },
    "黔西南": {
        "name": "黔西南",
        "admaster": "黔西南布依族苗族自治州",
        "name_en": "Qianxinan",
        "province": "贵州",
        "province_en": "Guizhou",
        "tier": "5",
        "lat": "27.014344747084042",
        "lng": "106.03857397725803"
    },
    "齐齐哈尔": {
        "name": "齐齐哈尔",
        "admaster": "齐齐哈尔市",
        "name_en": "Qiqihar",
        "province": "黑龙江",
        "province_en": "Heilongjiang",
        "tier": "3",
        "lat": "47.3599771860153",
        "lng": "123.92457086841536"
    },
    "龙岩": {
        "name": "龙岩",
        "admaster": "龙岩市",
        "name_en": "Longyan",
        "province": "福建",
        "province_en": "Fujian",
        "tier": "3",
        "lat": "25.081219844871676",
        "lng": "117.02344756677536"
    }
}